<?xml version="1.0" encoding="UTF-8"?>
<gpx creator="Garmin Explore App" version="1.1" schemaLocation="http://www.topografix.com/GPX/1/1 http://www.topografix.com/GPX/1/1/gpx.xsd http://www.garmin.com/xmlschemas/WaypointExtension/v1 http://www8.garmin.com/xmlschemas/WaypointExtensionv1.xsd http://www.garmin.com/xmlschemas/TrackPointExtension/v1 http://www.garmin.com/xmlschemas/TrackPointExtensionv1.xsd http://www.garmin.com/xmlschemas/GpxExtensions/v3 http://www8.garmin.com/xmlschemas/GpxExtensionsv3.xsd http://www.garmin.com/xmlschemas/ActivityExtension/v1 http://www8.garmin.com/xmlschemas/ActivityExtensionv1.xsd http://www.garmin.com/xmlschemas/AdventuresExtensions/v1 http://www8.garmin.com/xmlschemas/AdventuresExtensionv1.xsd http://www.garmin.com/xmlschemas/PressureExtension/v1 http://www.garmin.com/xmlschemas/PressureExtensionv1.xsd" xmlns="http://www.topografix.com/GPX/1/1" xmlns:xsi="http://www.w3.org/2001/XMLSchema-instance" xsi:schemaLocation="http://www.topografix.com/GPX/1/1 http://www.topografix.com/GPX/1/1/gpx.xsd http://www.garmin.com/xmlschemas/GpxExtensions/v3 http://www.garmin.com/xmlschemas/GpxExtensionsv3.xsd http://www.garmin.com/xmlschemas/TrackPointExtension/v1 http://www.garmin.com/xmlschemas/TrackPointExtensionv1.xsd http://www.garmin.com/xmlschemas/PowerExtension/v1 http://www.garmin.com/xmlschemas/PowerExtensionv1.xsd http://www.topografix.com/GPX/gpx_style/0/2 http://www.topografix.com/GPX/gpx_style/0/2/gpx_style.xsd" xmlns:gpxtpx="http://www.garmin.com/xmlschemas/TrackPointExtension/v1" xmlns:gpxx="http://www.garmin.com/xmlschemas/GpxExtensions/v3" xmlns:gpxpx="http://www.garmin.com/xmlschemas/PowerExtension/v1" xmlns:gpx_style="http://www.topografix.com/GPX/gpx_style/0/2">
  <metadata>
    <name>2026-08-23 17:42:56</name>
    <author>
      <name>gpx.studio</name>
      <link href="https://gpx.studio"/>
    </author>
    <link href="http://www.garmin.com">
      <text>Garmin International</text>
    </link>
    <time>2026-09-02T14:47:39.000Z</time>
  </metadata>
  <trk>
    <name>2026-08-23 17:42:56</name>
    <trkseg>
      <trkpt lat="54.16704988479614" lon="7.904821157455444">
        <ele>9.999999562023526e+24</ele>
        <time>1970-01-01T13:27:14.000Z</time>
      </trkpt>
      <trkpt lat="54.16709125041962" lon="7.904797077178955">
        <ele>9.999999562023526e+24</ele>
        <time>1970-01-01T13:27:17.000Z</time>
      </trkpt>
      <trkpt lat="54.167197704315186" lon="7.9047088623046875">
        <ele>9.999999562023526e+24</ele>
        <time>1970-01-01T13:27:27.000Z</time>
      </trkpt>
      <trkpt lat="54.167316913604736" lon="7.904743671417236">
        <ele>9.999999562023526e+24</ele>
        <time>1970-01-01T13:27:36.000Z</time>
      </trkpt>
      <trkpt lat="54.16749310493469" lon="7.904768466949463">
        <ele>9.999999562023526e+24</ele>
        <time>1970-01-01T13:27:51.000Z</time>
      </trkpt>
      <trkpt lat="54.167694330215454" lon="7.904776930809021">
        <ele>9.999999562023526e+24</ele>
        <time>1970-01-01T13:28:07.000Z</time>
      </trkpt>
      <trkpt lat="54.16785526275635" lon="7.9047287702560425">
        <ele>9.999999562023526e+24</ele>
        <time>1970-01-01T13:28:20.000Z</time>
      </trkpt>
      <trkpt lat="54.16801583766937" lon="7.904639840126038">
        <ele>9.999999562023526e+24</ele>
        <time>1970-01-01T13:28:33.000Z</time>
      </trkpt>
      <trkpt lat="54.16814136505127" lon="7.904575705528259">
        <ele>9.999999562023526e+24</ele>
        <time>1970-01-01T13:28:44.000Z</time>
      </trkpt>
      <trkpt lat="54.16817367076874" lon="7.904549241065979">
        <ele>9.999999562023526e+24</ele>
        <time>1970-01-01T13:28:47.000Z</time>
      </trkpt>
      <trkpt lat="54.16822648048401" lon="7.904506087303162">
        <ele>9.999999562023526e+24</ele>
        <time>1970-01-01T13:28:51.000Z</time>
      </trkpt>
      <trkpt lat="54.16826343536377" lon="7.904480814933777">
        <ele>9.999999562023526e+24</ele>
        <time>1970-01-01T13:28:55.000Z</time>
      </trkpt>
      <trkpt lat="54.168320417404175" lon="7.904431700706482">
        <ele>9.999999562023526e+24</ele>
        <time>1970-01-01T13:29:00.000Z</time>
      </trkpt>
      <trkpt lat="54.16846191883087" lon="7.904298663139343">
        <ele>9.999999562023526e+24</ele>
        <time>1970-01-01T13:29:13.000Z</time>
      </trkpt>
      <trkpt lat="54.16857886314392" lon="7.904071092605591">
        <ele>9.999999562023526e+24</ele>
        <time>1970-01-01T13:29:27.000Z</time>
      </trkpt>
      <trkpt lat="54.16860604286194" lon="7.9040117263793945">
        <ele>9.999999562023526e+24</ele>
        <time>1970-01-01T13:29:30.000Z</time>
      </trkpt>
      <trkpt lat="54.16863393783569" lon="7.903956651687622">
        <ele>9.999999562023526e+24</ele>
        <time>1970-01-01T13:29:34.000Z</time>
      </trkpt>
      <trkpt lat="54.16865825653076" lon="7.903888940811157">
        <ele>9.999999562023526e+24</ele>
        <time>1970-01-01T13:29:38.000Z</time>
      </trkpt>
      <trkpt lat="54.16868269443512" lon="7.90382707118988">
        <ele>9.999999562023526e+24</ele>
        <time>1970-01-01T13:29:41.000Z</time>
      </trkpt>
      <trkpt lat="54.16875946521759" lon="7.903657913208008">
        <ele>9.999999562023526e+24</ele>
        <time>1970-01-01T13:29:51.000Z</time>
      </trkpt>
      <trkpt lat="54.16877257823944" lon="7.903632879257202">
        <ele>9.999999562023526e+24</ele>
        <time>1970-01-01T13:29:53.000Z</time>
      </trkpt>
      <trkpt lat="54.16880643367767" lon="7.903584361076355">
        <ele>9.999999562023526e+24</ele>
        <time>1970-01-01T13:29:56.000Z</time>
      </trkpt>
      <trkpt lat="54.16882395744324" lon="7.903561353683472">
        <ele>9.999999562023526e+24</ele>
        <time>1970-01-01T13:29:58.000Z</time>
      </trkpt>
      <trkpt lat="54.168930888175964" lon="7.903317093849182">
        <ele>9.999999562023526e+24</ele>
        <time>1970-01-01T13:30:12.000Z</time>
      </trkpt>
      <trkpt lat="54.1689727306366" lon="7.903228282928467">
        <ele>9.999999562023526e+24</ele>
        <time>1970-01-01T13:30:18.000Z</time>
      </trkpt>
      <trkpt lat="54.169079184532166" lon="7.902955651283264">
        <ele>9.999999562023526e+24</ele>
        <time>1970-01-01T13:30:33.000Z</time>
      </trkpt>
      <trkpt lat="54.169206619262695" lon="7.902691602706909">
        <ele>9.999999562023526e+24</ele>
        <time>1970-01-01T13:30:49.000Z</time>
      </trkpt>
      <trkpt lat="54.169310569763184" lon="7.902486443519592">
        <ele>9.999999562023526e+24</ele>
        <time>1970-01-01T13:31:02.000Z</time>
      </trkpt>
      <trkpt lat="54.16943371295929" lon="7.902226448059082">
        <ele>9.999999562023526e+24</ele>
        <time>1970-01-01T13:31:17.000Z</time>
      </trkpt>
      <trkpt lat="54.16954839229584" lon="7.902041912078857">
        <ele>9.999999562023526e+24</ele>
        <time>1970-01-01T13:31:30.000Z</time>
      </trkpt>
      <trkpt lat="54.16958570480347" lon="7.9020081758499146">
        <ele>9.999999562023526e+24</ele>
        <time>1970-01-01T13:31:33.000Z</time>
      </trkpt>
      <trkpt lat="54.169697999954224" lon="7.9018449783325195">
        <ele>9.999999562023526e+24</ele>
        <time>1970-01-01T13:31:45.000Z</time>
      </trkpt>
      <trkpt lat="54.16970980167389" lon="7.901810050010681">
        <ele>9.999999562023526e+24</ele>
        <time>1970-01-01T13:31:47.000Z</time>
      </trkpt>
      <trkpt lat="54.169777274131775" lon="7.9016982316970825">
        <ele>9.999999562023526e+24</ele>
        <time>1970-01-01T13:31:55.000Z</time>
      </trkpt>
      <trkpt lat="54.16983246803284" lon="7.90164840221405">
        <ele>9.999999562023526e+24</ele>
        <time>1970-01-01T13:32:00.000Z</time>
      </trkpt>
      <trkpt lat="54.16993951797485" lon="7.901518225669861">
        <ele>9.999999562023526e+24</ele>
        <time>1970-01-01T13:32:10.000Z</time>
      </trkpt>
      <trkpt lat="54.17000639438629" lon="7.9014140367507935">
        <ele>9.999999562023526e+24</ele>
        <time>1970-01-01T13:32:17.000Z</time>
      </trkpt>
      <trkpt lat="54.1701226234436" lon="7.901185989379883">
        <ele>9.999999562023526e+24</ele>
        <time>1970-01-01T13:32:32.000Z</time>
      </trkpt>
      <trkpt lat="54.17022907733917" lon="7.901014447212219">
        <ele>9.999999562023526e+24</ele>
        <time>1970-01-01T13:32:43.000Z</time>
      </trkpt>
      <trkpt lat="54.17027735710144" lon="7.9008824825286865">
        <ele>9.999999562023526e+24</ele>
        <time>1970-01-01T13:32:51.000Z</time>
      </trkpt>
      <trkpt lat="54.17037391662598" lon="7.900715589523315">
        <ele>9.999999562023526e+24</ele>
        <time>1970-01-01T13:33:02.000Z</time>
      </trkpt>
      <trkpt lat="54.17040526866913" lon="7.90065860748291">
        <ele>9.999999562023526e+24</ele>
        <time>1970-01-01T13:33:05.000Z</time>
      </trkpt>
      <trkpt lat="54.170448780059814" lon="7.9005666971206665">
        <ele>9.999999562023526e+24</ele>
        <time>1970-01-01T13:33:11.000Z</time>
      </trkpt>
      <trkpt lat="54.1704957485199" lon="7.9004833698272705">
        <ele>9.999999562023526e+24</ele>
        <time>1970-01-01T13:33:16.000Z</time>
      </trkpt>
      <trkpt lat="54.17052912712097" lon="7.900425910949707">
        <ele>9.999999562023526e+24</ele>
        <time>1970-01-01T13:33:20.000Z</time>
      </trkpt>
      <trkpt lat="54.17054498195648" lon="7.900397181510925">
        <ele>9.999999562023526e+24</ele>
        <time>1970-01-01T13:33:22.000Z</time>
      </trkpt>
      <trkpt lat="54.17067623138428" lon="7.900110244750977">
        <ele>9.999999562023526e+24</ele>
        <time>1970-01-01T13:33:39.000Z</time>
      </trkpt>
      <trkpt lat="54.17073905467987" lon="7.899947881698608">
        <ele>9.999999562023526e+24</ele>
        <time>1970-01-01T13:33:48.000Z</time>
      </trkpt>
      <trkpt lat="54.17077016830444" lon="7.899890780448914">
        <ele>9.999999562023526e+24</ele>
        <time>1970-01-01T13:33:52.000Z</time>
      </trkpt>
      <trkpt lat="54.17079818248749" lon="7.899829149246216">
        <ele>9.999999562023526e+24</ele>
        <time>1970-01-01T13:33:55.000Z</time>
      </trkpt>
      <trkpt lat="54.17091381549835" lon="7.899526357650757">
        <ele>9.999999562023526e+24</ele>
        <time>1970-01-01T13:34:12.000Z</time>
      </trkpt>
      <trkpt lat="54.17092764377594" lon="7.8994961977005005">
        <ele>9.999999562023526e+24</ele>
        <time>1970-01-01T13:34:14.000Z</time>
      </trkpt>
      <trkpt lat="54.17098331451416" lon="7.8993754386901855">
        <ele>9.999999562023526e+24</ele>
        <time>1970-01-01T13:34:21.000Z</time>
      </trkpt>
      <trkpt lat="54.17105412483215" lon="7.899243712425232">
        <ele>9.999999562023526e+24</ele>
        <time>1970-01-01T13:34:30.000Z</time>
      </trkpt>
      <trkpt lat="54.171197175979614" lon="7.898927092552185">
        <ele>9.999999562023526e+24</ele>
        <time>1970-01-01T13:34:48.000Z</time>
      </trkpt>
      <trkpt lat="54.171242117881775" lon="7.898828387260437">
        <ele>9.999999562023526e+24</ele>
        <time>1970-01-01T13:34:54.000Z</time>
      </trkpt>
      <trkpt lat="54.17125725746155" lon="7.898795008659363">
        <ele>9.999999562023526e+24</ele>
        <time>1970-01-01T13:34:56.000Z</time>
      </trkpt>
      <trkpt lat="54.171271324157715" lon="7.898760080337524">
        <ele>9.999999562023526e+24</ele>
        <time>1970-01-01T13:34:58.000Z</time>
      </trkpt>
      <trkpt lat="54.171339988708496" lon="7.898593306541443">
        <ele>9.999999562023526e+24</ele>
        <time>1970-01-01T13:35:08.000Z</time>
      </trkpt>
      <trkpt lat="54.17135465145111" lon="7.898561120033264">
        <ele>9.999999562023526e+24</ele>
        <time>1970-01-01T13:35:10.000Z</time>
      </trkpt>
      <trkpt lat="54.17136895656586" lon="7.898521304130554">
        <ele>9.999999562023526e+24</ele>
        <time>1970-01-01T13:35:12.000Z</time>
      </trkpt>
      <trkpt lat="54.171382427215576" lon="7.898484230041504">
        <ele>9.999999562023526e+24</ele>
        <time>1970-01-01T13:35:14.000Z</time>
      </trkpt>
      <trkpt lat="54.17139661312103" lon="7.898452401161194">
        <ele>9.999999562023526e+24</ele>
        <time>1970-01-01T13:35:16.000Z</time>
      </trkpt>
      <trkpt lat="54.17142736911774" lon="7.898388504981995">
        <ele>9.999999562023526e+24</ele>
        <time>1970-01-01T13:35:20.000Z</time>
      </trkpt>
      <trkpt lat="54.17144227027893" lon="7.898357033729553">
        <ele>9.999999562023526e+24</ele>
        <time>1970-01-01T13:35:22.000Z</time>
      </trkpt>
      <trkpt lat="54.17150890827179" lon="7.898261785507202">
        <ele>9.999999562023526e+24</ele>
        <time>1970-01-01T13:35:29.000Z</time>
      </trkpt>
      <trkpt lat="54.171539664268494" lon="7.898190975189209">
        <ele>9.999999562023526e+24</ele>
        <time>1970-01-01T13:35:33.000Z</time>
      </trkpt>
      <trkpt lat="54.1716183423996" lon="7.898027181625366">
        <ele>9.999999562023526e+24</ele>
        <time>1970-01-01T13:35:43.000Z</time>
      </trkpt>
      <trkpt lat="54.171733140945435" lon="7.897809982299805">
        <ele>9.999999562023526e+24</ele>
        <time>1970-01-01T13:35:56.000Z</time>
      </trkpt>
      <trkpt lat="54.1717791557312" lon="7.897733211517334">
        <ele>9.999999562023526e+24</ele>
        <time>1970-01-01T13:36:01.000Z</time>
      </trkpt>
      <trkpt lat="54.17183029651642" lon="7.897658705711365">
        <ele>9.999999562023526e+24</ele>
        <time>1970-01-01T13:36:07.000Z</time>
      </trkpt>
      <trkpt lat="54.17193269729614" lon="7.897563815116882">
        <ele>9.999999562023526e+24</ele>
        <time>1970-01-01T13:36:16.000Z</time>
      </trkpt>
      <trkpt lat="54.172065019607544" lon="7.897511601448059">
        <ele>9.999999562023526e+24</ele>
        <time>1970-01-01T13:36:27.000Z</time>
      </trkpt>
      <trkpt lat="54.17211210727692" lon="7.8975149393081665">
        <ele>9.999999562023526e+24</ele>
        <time>1970-01-01T13:36:31.000Z</time>
      </trkpt>
      <trkpt lat="54.172354340553284" lon="7.897600173950195">
        <ele>9.999999562023526e+24</ele>
        <time>1970-01-01T13:36:51.000Z</time>
      </trkpt>
      <trkpt lat="54.1725537776947" lon="7.89764940738678">
        <ele>9.999999562023526e+24</ele>
        <time>1970-01-01T13:37:07.000Z</time>
      </trkpt>
      <trkpt lat="54.172677993774414" lon="7.897681355476379">
        <ele>9.999999562023526e+24</ele>
        <time>1970-01-01T13:37:17.000Z</time>
      </trkpt>
      <trkpt lat="54.17279052734375" lon="7.897726774215698">
        <ele>9.999999562023526e+24</ele>
        <time>1970-01-01T13:37:26.000Z</time>
      </trkpt>
      <trkpt lat="54.172821164131165" lon="7.897737622261047">
        <ele>9.999999562023526e+24</ele>
        <time>1970-01-01T13:37:29.000Z</time>
      </trkpt>
      <trkpt lat="54.17284917831421" lon="7.897748947143555">
        <ele>9.999999562023526e+24</ele>
        <time>1970-01-01T13:37:31.000Z</time>
      </trkpt>
      <trkpt lat="54.172919392585754" lon="7.897799372673035">
        <ele>9.999999562023526e+24</ele>
        <time>1970-01-01T13:37:37.000Z</time>
      </trkpt>
      <trkpt lat="54.17305266857147" lon="7.897846221923828">
        <ele>9.999999562023526e+24</ele>
        <time>1970-01-01T13:37:48.000Z</time>
      </trkpt>
      <trkpt lat="54.17315435409546" lon="7.8978800773620605">
        <ele>9.999999562023526e+24</ele>
        <time>1970-01-01T13:37:56.000Z</time>
      </trkpt>
      <trkpt lat="54.173216104507446" lon="7.8979268074035645">
        <ele>9.999999562023526e+24</ele>
        <time>1970-01-01T13:38:02.000Z</time>
      </trkpt>
      <trkpt lat="54.17326819896698" lon="7.897967457771301">
        <ele>9.999999562023526e+24</ele>
        <time>1970-01-01T13:38:06.000Z</time>
      </trkpt>
      <trkpt lat="54.173378229141235" lon="7.89802086353302">
        <ele>9.999999562023526e+24</ele>
        <time>1970-01-01T13:38:15.000Z</time>
      </trkpt>
      <trkpt lat="54.173396944999695" lon="7.898030400276184">
        <ele>9.999999562023526e+24</ele>
        <time>1970-01-01T13:38:17.000Z</time>
      </trkpt>
      <trkpt lat="54.173409819602966" lon="7.898028135299683">
        <ele>9.999999562023526e+24</ele>
        <time>1970-01-01T13:38:18.000Z</time>
      </trkpt>
      <trkpt lat="54.17343580722809" lon="7.89802885055542">
        <ele>9.999999562023526e+24</ele>
        <time>1970-01-01T13:38:20.000Z</time>
      </trkpt>
      <trkpt lat="54.17344045639038" lon="7.898026943206787">
        <ele>9.999999562023526e+24</ele>
        <time>1970-01-01T13:38:20.000Z</time>
      </trkpt>
      <trkpt lat="54.173447251319885" lon="7.898027300834656">
        <ele>9.999999562023526e+24</ele>
        <time>1970-01-01T13:38:21.000Z</time>
      </trkpt>
      <trkpt lat="54.17345988750458" lon="7.898026943206787">
        <ele>9.999999562023526e+24</ele>
        <time>1970-01-01T13:38:22.000Z</time>
      </trkpt>
      <trkpt lat="54.173492074012756" lon="7.898026823997498">
        <ele>9.999999562023526e+24</ele>
        <time>1970-01-01T13:38:25.000Z</time>
      </trkpt>
      <trkpt lat="54.173516154289246" lon="7.898007392883301">
        <ele>9.999999562023526e+24</ele>
        <time>1970-01-01T13:38:27.000Z</time>
      </trkpt>
      <trkpt lat="54.173524498939514" lon="7.897991061210632">
        <ele>9.999999562023526e+24</ele>
        <time>1970-01-01T13:38:28.000Z</time>
      </trkpt>
      <trkpt lat="54.17354118824005" lon="7.89793074131012">
        <ele>9.999999562023526e+24</ele>
        <time>1970-01-01T13:38:31.000Z</time>
      </trkpt>
      <trkpt lat="54.17353868484497" lon="7.897890567779541">
        <ele>9.999999562023526e+24</ele>
        <time>1970-01-01T13:38:33.000Z</time>
      </trkpt>
      <trkpt lat="54.17353272438049" lon="7.897876262664795">
        <ele>9.999999562023526e+24</ele>
        <time>1970-01-01T13:38:34.000Z</time>
      </trkpt>
      <trkpt lat="54.1735303401947" lon="7.897868633270264">
        <ele>9.999999562023526e+24</ele>
        <time>1970-01-01T13:38:34.000Z</time>
      </trkpt>
      <trkpt lat="54.17347455024719" lon="7.897788643836975">
        <ele>9.999999562023526e+24</ele>
        <time>1970-01-01T13:38:40.000Z</time>
      </trkpt>
      <trkpt lat="54.173447608947754" lon="7.897782206535339">
        <ele>9.999999562023526e+24</ele>
        <time>1970-01-01T13:38:42.000Z</time>
      </trkpt>
      <trkpt lat="54.173410415649414" lon="7.897791385650635">
        <ele>9.999999562023526e+24</ele>
        <time>1970-01-01T13:38:45.000Z</time>
      </trkpt>
      <trkpt lat="54.173322677612305" lon="7.897881984710693">
        <ele>9.999999562023526e+24</ele>
        <time>1970-01-01T13:38:53.000Z</time>
      </trkpt>
      <trkpt lat="54.17329752445221" lon="7.897976875305176">
        <ele>9.999999562023526e+24</ele>
        <time>1970-01-01T13:38:58.000Z</time>
      </trkpt>
      <trkpt lat="54.17329132556915" lon="7.897971510887146">
        <ele>9.999999562023526e+24</ele>
        <time>1970-01-01T13:38:59.000Z</time>
      </trkpt>
      <trkpt lat="54.17327284812927" lon="7.897910237312317">
        <ele>9.999999562023526e+24</ele>
        <time>1970-01-01T13:39:02.000Z</time>
      </trkpt>
      <trkpt lat="54.17325806617737" lon="7.89781641960144">
        <ele>9.999999562023526e+24</ele>
        <time>1970-01-01T13:39:06.000Z</time>
      </trkpt>
      <trkpt lat="54.173245787620544" lon="7.89772641658783">
        <ele>9.999999562023526e+24</ele>
        <time>1970-01-01T13:39:11.000Z</time>
      </trkpt>
      <trkpt lat="54.17321789264679" lon="7.897637486457825">
        <ele>9.999999562023526e+24</ele>
        <time>1970-01-01T13:39:15.000Z</time>
      </trkpt>
      <trkpt lat="54.173208594322205" lon="7.897623538970947">
        <ele>9.999999562023526e+24</ele>
        <time>1970-01-01T13:39:16.000Z</time>
      </trkpt>
      <trkpt lat="54.17317843437195" lon="7.897586703300476">
        <ele>9.999999562023526e+24</ele>
        <time>1970-01-01T13:39:19.000Z</time>
      </trkpt>
      <trkpt lat="54.173139572143555" lon="7.897559762001038">
        <ele>9.999999562023526e+24</ele>
        <time>1970-01-01T13:39:23.000Z</time>
      </trkpt>
      <trkpt lat="54.173107504844666" lon="7.897566914558411">
        <ele>9.999999562023526e+24</ele>
        <time>1970-01-01T13:39:25.000Z</time>
      </trkpt>
      <trkpt lat="54.17310273647308" lon="7.897563338279724">
        <ele>9.999999562023526e+24</ele>
        <time>1970-01-01T13:39:26.000Z</time>
      </trkpt>
      <trkpt lat="54.17308831214905" lon="7.8975619077682495">
        <ele>9.999999562023526e+24</ele>
        <time>1970-01-01T13:39:27.000Z</time>
      </trkpt>
      <trkpt lat="54.173078417778015" lon="7.8975605964660645">
        <ele>9.999999562023526e+24</ele>
        <time>1970-01-01T13:39:28.000Z</time>
      </trkpt>
      <trkpt lat="54.17300248146057" lon="7.897556185722351">
        <ele>9.999999562023526e+24</ele>
        <time>1970-01-01T13:39:34.000Z</time>
      </trkpt>
      <trkpt lat="54.1729850769043" lon="7.897558093070984">
        <ele>9.999999562023526e+24</ele>
        <time>1970-01-01T13:39:35.000Z</time>
      </trkpt>
      <trkpt lat="54.172969460487366" lon="7.897552251815796">
        <ele>9.999999562023526e+24</ele>
        <time>1970-01-01T13:39:37.000Z</time>
      </trkpt>
      <trkpt lat="54.17295730113983" lon="7.897539734840393">
        <ele>9.999999562023526e+24</ele>
        <time>1970-01-01T13:39:38.000Z</time>
      </trkpt>
      <trkpt lat="54.17293977737427" lon="7.897524476051331">
        <ele>9.999999562023526e+24</ele>
        <time>1970-01-01T13:39:39.000Z</time>
      </trkpt>
      <trkpt lat="54.17294681072235" lon="7.897582173347473">
        <ele>9.999999562023526e+24</ele>
        <time>1970-01-01T13:39:42.000Z</time>
      </trkpt>
      <trkpt lat="54.17297184467316" lon="7.897622585296631">
        <ele>9.999999562023526e+24</ele>
        <time>1970-01-01T13:39:45.000Z</time>
      </trkpt>
      <trkpt lat="54.173012018203735" lon="7.897663235664368">
        <ele>9.999999562023526e+24</ele>
        <time>1970-01-01T13:39:48.000Z</time>
      </trkpt>
      <trkpt lat="54.173038363456726" lon="7.8976686000823975">
        <ele>9.999999562023526e+24</ele>
        <time>1970-01-01T13:39:51.000Z</time>
      </trkpt>
      <trkpt lat="54.17309033870697" lon="7.897649168968201">
        <ele>9.999999562023526e+24</ele>
        <time>1970-01-01T13:39:55.000Z</time>
      </trkpt>
      <trkpt lat="54.17311608791351" lon="7.897620677947998">
        <ele>9.999999562023526e+24</ele>
        <time>1970-01-01T13:39:57.000Z</time>
      </trkpt>
      <trkpt lat="54.17312037944794" lon="7.897614359855652">
        <ele>9.999999562023526e+24</ele>
        <time>1970-01-01T13:39:58.000Z</time>
      </trkpt>
      <trkpt lat="54.17312562465668" lon="7.897605657577515">
        <ele>9.999999562023526e+24</ele>
        <time>1970-01-01T13:39:58.000Z</time>
      </trkpt>
      <trkpt lat="54.17313778400421" lon="7.897594928741455">
        <ele>9.999999562023526e+24</ele>
        <time>1970-01-01T13:39:59.000Z</time>
      </trkpt>
      <trkpt lat="54.17314147949219" lon="7.897590160369873">
        <ele>9.999999562023526e+24</ele>
        <time>1970-01-01T13:40:00.000Z</time>
      </trkpt>
      <trkpt lat="54.17315661907196" lon="7.897576689720154">
        <ele>9.999999562023526e+24</ele>
        <time>1970-01-01T13:40:01.000Z</time>
      </trkpt>
      <trkpt lat="54.173160910606384" lon="7.897571921348572">
        <ele>9.999999562023526e+24</ele>
        <time>1970-01-01T13:40:02.000Z</time>
      </trkpt>
      <trkpt lat="54.17318284511566" lon="7.897551894187927">
        <ele>9.999999562023526e+24</ele>
        <time>1970-01-01T13:40:04.000Z</time>
      </trkpt>
      <trkpt lat="54.17320191860199" lon="7.8975396156311035">
        <ele>9.999999562023526e+24</ele>
        <time>1970-01-01T13:40:05.000Z</time>
      </trkpt>
      <trkpt lat="54.17321836948395" lon="7.897528529167175">
        <ele>9.999999562023526e+24</ele>
        <time>1970-01-01T13:40:07.000Z</time>
      </trkpt>
      <trkpt lat="54.17324686050415" lon="7.897522449493408">
        <ele>9.999999562023526e+24</ele>
        <time>1970-01-01T13:40:09.000Z</time>
      </trkpt>
      <trkpt lat="54.1732611656189" lon="7.897524356842041">
        <ele>9.999999562023526e+24</ele>
        <time>1970-01-01T13:40:10.000Z</time>
      </trkpt>
      <trkpt lat="54.1732656955719" lon="7.8975361585617065">
        <ele>9.999999562023526e+24</ele>
        <time>1970-01-01T13:40:11.000Z</time>
      </trkpt>
      <trkpt lat="54.17327797412872" lon="7.897537112236023">
        <ele>9.999999562023526e+24</ele>
        <time>1970-01-01T13:40:12.000Z</time>
      </trkpt>
      <trkpt lat="54.173314690589905" lon="7.8975313901901245">
        <ele>9.999999562023526e+24</ele>
        <time>1970-01-01T13:40:15.000Z</time>
      </trkpt>
      <trkpt lat="54.173319935798645" lon="7.897528886795044">
        <ele>9.999999562023526e+24</ele>
        <time>1970-01-01T13:40:15.000Z</time>
      </trkpt>
      <trkpt lat="54.173324942588806" lon="7.897525072097778">
        <ele>9.999999562023526e+24</ele>
        <time>1970-01-01T13:40:16.000Z</time>
      </trkpt>
      <trkpt lat="54.17334234714508" lon="7.897515535354614">
        <ele>9.999999562023526e+24</ele>
        <time>1970-01-01T13:40:17.000Z</time>
      </trkpt>
      <trkpt lat="54.1733478307724" lon="7.897512078285217">
        <ele>9.999999562023526e+24</ele>
        <time>1970-01-01T13:40:18.000Z</time>
      </trkpt>
      <trkpt lat="54.173383712768555" lon="7.897482991218567">
        <ele>9.999999562023526e+24</ele>
        <time>1970-01-01T13:40:21.000Z</time>
      </trkpt>
      <trkpt lat="54.17340290546417" lon="7.897467732429504">
        <ele>9.999999562023526e+24</ele>
        <time>1970-01-01T13:40:22.000Z</time>
      </trkpt>
      <trkpt lat="54.17340874671936" lon="7.897462368011475">
        <ele>9.999999562023526e+24</ele>
        <time>1970-01-01T13:40:23.000Z</time>
      </trkpt>
      <trkpt lat="54.17340874671936" lon="7.897462368011475">
        <ele>9.999999562023526e+24</ele>
        <time>1970-01-01T13:40:23.000Z</time>
      </trkpt>
      <trkpt lat="54.17342209815979" lon="7.897450804710388">
        <ele>9.999999562023526e+24</ele>
        <time>1970-01-01T13:40:24.000Z</time>
      </trkpt>
      <trkpt lat="54.17342936992645" lon="7.897444486618042">
        <ele>9.999999562023526e+24</ele>
        <time>1970-01-01T13:40:25.000Z</time>
      </trkpt>
      <trkpt lat="54.17344546318054" lon="7.897434949874878">
        <ele>9.999999562023526e+24</ele>
        <time>1970-01-01T13:40:26.000Z</time>
      </trkpt>
      <trkpt lat="54.173460960388184" lon="7.897421717643738">
        <ele>9.999999562023526e+24</ele>
        <time>1970-01-01T13:40:28.000Z</time>
      </trkpt>
      <trkpt lat="54.17352521419525" lon="7.897368550300598">
        <ele>9.999999562023526e+24</ele>
        <time>1970-01-01T13:40:33.000Z</time>
      </trkpt>
      <trkpt lat="54.17353367805481" lon="7.897361874580383">
        <ele>9.999999562023526e+24</ele>
        <time>1970-01-01T13:40:34.000Z</time>
      </trkpt>
      <trkpt lat="54.17357277870178" lon="7.897333979606628">
        <ele>9.999999562023526e+24</ele>
        <time>1970-01-01T13:40:37.000Z</time>
      </trkpt>
      <trkpt lat="54.17359972000122" lon="7.897314548492432">
        <ele>9.999999562023526e+24</ele>
        <time>1970-01-01T13:40:40.000Z</time>
      </trkpt>
      <trkpt lat="54.17361831665039" lon="7.897300124168396">
        <ele>9.999999562023526e+24</ele>
        <time>1970-01-01T13:40:41.000Z</time>
      </trkpt>
      <trkpt lat="54.17363679409027" lon="7.897286534309387">
        <ele>9.999999562023526e+24</ele>
        <time>1970-01-01T13:40:43.000Z</time>
      </trkpt>
      <trkpt lat="54.17365372180939" lon="7.8972718715667725">
        <ele>9.999999562023526e+24</ele>
        <time>1970-01-01T13:40:44.000Z</time>
      </trkpt>
      <trkpt lat="54.17374622821808" lon="7.8972004652023315">
        <ele>9.999999562023526e+24</ele>
        <time>1970-01-01T13:40:53.000Z</time>
      </trkpt>
      <trkpt lat="54.17384052276611" lon="7.897128224372864">
        <ele>9.999999562023526e+24</ele>
        <time>1970-01-01T13:41:01.000Z</time>
      </trkpt>
      <trkpt lat="54.1738942861557" lon="7.897092700004578">
        <ele>9.999999562023526e+24</ele>
        <time>1970-01-01T13:41:06.000Z</time>
      </trkpt>
      <trkpt lat="54.17392373085022" lon="7.897075653076172">
        <ele>9.999999562023526e+24</ele>
        <time>1970-01-01T13:41:08.000Z</time>
      </trkpt>
      <trkpt lat="54.173946261405945" lon="7.8970454931259155">
        <ele>9.999999562023526e+24</ele>
        <time>1970-01-01T13:41:10.000Z</time>
      </trkpt>
      <trkpt lat="54.173983216285706" lon="7.897005915641785">
        <ele>9.999999562023526e+24</ele>
        <time>1970-01-01T13:41:14.000Z</time>
      </trkpt>
      <trkpt lat="54.17409563064575" lon="7.8969045877456665">
        <ele>9.999999562023526e+24</ele>
        <time>1970-01-01T13:41:24.000Z</time>
      </trkpt>
      <trkpt lat="54.17415273189545" lon="7.896862506866455">
        <ele>9.999999562023526e+24</ele>
        <time>1970-01-01T13:41:29.000Z</time>
      </trkpt>
      <trkpt lat="54.17416548728943" lon="7.896849274635315">
        <ele>9.999999562023526e+24</ele>
        <time>1970-01-01T13:41:30.000Z</time>
      </trkpt>
      <trkpt lat="54.17417752742767" lon="7.8968387842178345">
        <ele>9.999999562023526e+24</ele>
        <time>1970-01-01T13:41:31.000Z</time>
      </trkpt>
      <trkpt lat="54.17420041561127" lon="7.896821022033691">
        <ele>9.999999562023526e+24</ele>
        <time>1970-01-01T13:41:33.000Z</time>
      </trkpt>
      <trkpt lat="54.17422139644623" lon="7.896807670593262">
        <ele>9.999999562023526e+24</ele>
        <time>1970-01-01T13:41:35.000Z</time>
      </trkpt>
      <trkpt lat="54.174330711364746" lon="7.896743893623352">
        <ele>9.999999562023526e+24</ele>
        <time>1970-01-01T13:41:44.000Z</time>
      </trkpt>
      <trkpt lat="54.174402713775635" lon="7.89669668674469">
        <ele>9.999999562023526e+24</ele>
        <time>1970-01-01T13:41:50.000Z</time>
      </trkpt>
      <trkpt lat="54.17441809177399" lon="7.896689772605896">
        <ele>9.999999562023526e+24</ele>
        <time>1970-01-01T13:41:52.000Z</time>
      </trkpt>
      <trkpt lat="54.174431920051575" lon="7.896682977676392">
        <ele>9.999999562023526e+24</ele>
        <time>1970-01-01T13:41:53.000Z</time>
      </trkpt>
      <trkpt lat="54.174444794654846" lon="7.896678566932678">
        <ele>9.999999562023526e+24</ele>
        <time>1970-01-01T13:41:54.000Z</time>
      </trkpt>
      <trkpt lat="54.17446804046631" lon="7.896660685539246">
        <ele>9.999999562023526e+24</ele>
        <time>1970-01-01T13:41:56.000Z</time>
      </trkpt>
      <trkpt lat="54.17452347278595" lon="7.896614670753479">
        <ele>9.999999562023526e+24</ele>
        <time>1970-01-01T13:42:01.000Z</time>
      </trkpt>
      <trkpt lat="54.17462110519409" lon="7.89655077457428">
        <ele>9.999999562023526e+24</ele>
        <time>1970-01-01T13:42:09.000Z</time>
      </trkpt>
      <trkpt lat="54.17462992668152" lon="7.896544456481934">
        <ele>9.999999562023526e+24</ele>
        <time>1970-01-01T13:42:10.000Z</time>
      </trkpt>
      <trkpt lat="54.17465686798096" lon="7.896536469459534">
        <ele>9.999999562023526e+24</ele>
        <time>1970-01-01T13:42:12.000Z</time>
      </trkpt>
      <trkpt lat="54.17466938495636" lon="7.896529316902161">
        <ele>9.999999562023526e+24</ele>
        <time>1970-01-01T13:42:13.000Z</time>
      </trkpt>
      <trkpt lat="54.17471730709076" lon="7.896496295928955">
        <ele>9.999999562023526e+24</ele>
        <time>1970-01-01T13:42:17.000Z</time>
      </trkpt>
      <trkpt lat="54.17475390434265" lon="7.896464824676514">
        <ele>9.999999562023526e+24</ele>
        <time>1970-01-01T13:42:21.000Z</time>
      </trkpt>
      <trkpt lat="54.174829602241516" lon="7.896401405334473">
        <ele>9.999999562023526e+24</ele>
        <time>1970-01-01T13:42:27.000Z</time>
      </trkpt>
      <trkpt lat="54.17486894130707" lon="7.89637291431427">
        <ele>9.999999562023526e+24</ele>
        <time>1970-01-01T13:42:31.000Z</time>
      </trkpt>
      <trkpt lat="54.17501354217529" lon="7.896271228790283">
        <ele>9.999999562023526e+24</ele>
        <time>1970-01-01T13:42:43.000Z</time>
      </trkpt>
      <trkpt lat="54.17504894733429" lon="7.896244049072266">
        <ele>9.999999562023526e+24</ele>
        <time>1970-01-01T13:42:47.000Z</time>
      </trkpt>
      <trkpt lat="54.175121545791626" lon="7.896169900894165">
        <ele>9.999999562023526e+24</ele>
        <time>1970-01-01T13:42:53.000Z</time>
      </trkpt>
      <trkpt lat="54.17519390583038" lon="7.896107316017151">
        <ele>9.999999562023526e+24</ele>
        <time>1970-01-01T13:43:00.000Z</time>
      </trkpt>
      <trkpt lat="54.17528533935547" lon="7.8960349559783936">
        <ele>9.999999562023526e+24</ele>
        <time>1970-01-01T13:43:08.000Z</time>
      </trkpt>
      <trkpt lat="54.175331115722656" lon="7.895977973937988">
        <ele>9.999999562023526e+24</ele>
        <time>1970-01-01T13:43:12.000Z</time>
      </trkpt>
      <trkpt lat="54.17538666725159" lon="7.895913243293762">
        <ele>9.999999562023526e+24</ele>
        <time>1970-01-01T13:43:18.000Z</time>
      </trkpt>
      <trkpt lat="54.17544615268707" lon="7.895867705345154">
        <ele>9.999999562023526e+24</ele>
        <time>1970-01-01T13:43:23.000Z</time>
      </trkpt>
      <trkpt lat="54.17547404766083" lon="7.8958457708358765">
        <ele>9.999999562023526e+24</ele>
        <time>1970-01-01T13:43:25.000Z</time>
      </trkpt>
      <trkpt lat="54.1755051612854" lon="7.895808219909668">
        <ele>9.999999562023526e+24</ele>
        <time>1970-01-01T13:43:29.000Z</time>
      </trkpt>
      <trkpt lat="54.17552304267883" lon="7.895779490470886">
        <ele>9.999999562023526e+24</ele>
        <time>1970-01-01T13:43:30.000Z</time>
      </trkpt>
      <trkpt lat="54.1755530834198" lon="7.895726442337036">
        <ele>9.999999562023526e+24</ele>
        <time>1970-01-01T13:43:34.000Z</time>
      </trkpt>
      <trkpt lat="54.17560803890228" lon="7.895613074302673">
        <ele>9.999999562023526e+24</ele>
        <time>1970-01-01T13:43:41.000Z</time>
      </trkpt>
      <trkpt lat="54.17565476894379" lon="7.895523428916931">
        <ele>9.999999562023526e+24</ele>
        <time>1970-01-01T13:43:46.000Z</time>
      </trkpt>
      <trkpt lat="54.175697445869446" lon="7.895459055900574">
        <ele>9.999999562023526e+24</ele>
        <time>1970-01-01T13:43:51.000Z</time>
      </trkpt>
      <trkpt lat="54.175764322280884" lon="7.89535915851593">
        <ele>9.999999562023526e+24</ele>
        <time>1970-01-01T13:43:58.000Z</time>
      </trkpt>
      <trkpt lat="54.17584192752838" lon="7.895210385322571">
        <ele>9.999999562023526e+24</ele>
        <time>1970-01-01T13:44:07.000Z</time>
      </trkpt>
      <trkpt lat="54.17593967914581" lon="7.8951016664505005">
        <ele>9.999999562023526e+24</ele>
        <time>1970-01-01T13:44:17.000Z</time>
      </trkpt>
      <trkpt lat="54.17598235607147" lon="7.8950982093811035">
        <ele>9.999999562023526e+24</ele>
        <time>1970-01-01T13:44:20.000Z</time>
      </trkpt>
      <trkpt lat="54.175997257232666" lon="7.895098805427551">
        <ele>9.999999562023526e+24</ele>
        <time>1970-01-01T13:44:21.000Z</time>
      </trkpt>
      <trkpt lat="54.17601144313812" lon="7.895097494125366">
        <ele>9.999999562023526e+24</ele>
        <time>1970-01-01T13:44:23.000Z</time>
      </trkpt>
      <trkpt lat="54.17604398727417" lon="7.8950947523117065">
        <ele>9.999999562023526e+24</ele>
        <time>1970-01-01T13:44:25.000Z</time>
      </trkpt>
      <trkpt lat="54.17607533931732" lon="7.8950865268707275">
        <ele>9.999999562023526e+24</ele>
        <time>1970-01-01T13:44:28.000Z</time>
      </trkpt>
      <trkpt lat="54.1761040687561" lon="7.895072102546692">
        <ele>9.999999562023526e+24</ele>
        <time>1970-01-01T13:44:30.000Z</time>
      </trkpt>
      <trkpt lat="54.17614936828613" lon="7.895060062408447">
        <ele>9.999999562023526e+24</ele>
        <time>1970-01-01T13:44:34.000Z</time>
      </trkpt>
      <trkpt lat="54.17618191242218" lon="7.895065546035767">
        <ele>9.999999562023526e+24</ele>
        <time>1970-01-01T13:44:36.000Z</time>
      </trkpt>
      <trkpt lat="54.17622089385986" lon="7.895112991333008">
        <ele>9.999999562023526e+24</ele>
        <time>1970-01-01T13:44:40.000Z</time>
      </trkpt>
      <trkpt lat="54.176236391067505" lon="7.895154595375061">
        <ele>9.999999562023526e+24</ele>
        <time>1970-01-01T13:44:43.000Z</time>
      </trkpt>
      <trkpt lat="54.17624008655548" lon="7.895178318023682">
        <ele>9.999999562023526e+24</ele>
        <time>1970-01-01T13:44:44.000Z</time>
      </trkpt>
      <trkpt lat="54.176252603530884" lon="7.895275712013245">
        <ele>9.999999562023526e+24</ele>
        <time>1970-01-01T13:44:48.000Z</time>
      </trkpt>
      <trkpt lat="54.17625176906586" lon="7.895389556884766">
        <ele>9.999999562023526e+24</ele>
        <time>1970-01-01T13:44:54.000Z</time>
      </trkpt>
      <trkpt lat="54.17618215084076" lon="7.895521759986877">
        <ele>9.999999562023526e+24</ele>
        <time>1970-01-01T13:45:02.000Z</time>
      </trkpt>
      <trkpt lat="54.17604470252991" lon="7.895599603652954">
        <ele>9.999999562023526e+24</ele>
        <time>1970-01-01T13:45:14.000Z</time>
      </trkpt>
      <trkpt lat="54.1760311126709" lon="7.895604729652405">
        <ele>9.999999562023526e+24</ele>
        <time>1970-01-01T13:45:15.000Z</time>
      </trkpt>
      <trkpt lat="54.17589616775513" lon="7.895591378211975">
        <ele>9.999999562023526e+24</ele>
        <time>1970-01-01T13:45:26.000Z</time>
      </trkpt>
      <trkpt lat="54.17576456069946" lon="7.895515441894531">
        <ele>9.999999562023526e+24</ele>
        <time>1970-01-01T13:45:37.000Z</time>
      </trkpt>
      <trkpt lat="54.17571425437927" lon="7.895472049713135">
        <ele>9.999999562023526e+24</ele>
        <time>1970-01-01T13:45:41.000Z</time>
      </trkpt>
      <trkpt lat="54.17568624019623" lon="7.895442962646484">
        <ele>9.999999562023526e+24</ele>
        <time>1970-01-01T13:45:44.000Z</time>
      </trkpt>
      <trkpt lat="54.17563843727112" lon="7.895362615585327">
        <ele>9.999999562023526e+24</ele>
        <time>1970-01-01T13:45:49.000Z</time>
      </trkpt>
      <trkpt lat="54.17558753490448" lon="7.895239591598511">
        <ele>9.999999562023526e+24</ele>
        <time>1970-01-01T13:45:56.000Z</time>
      </trkpt>
      <trkpt lat="54.175564646720886" lon="7.895153760910034">
        <ele>9.999999562023526e+24</ele>
        <time>1970-01-01T13:46:01.000Z</time>
      </trkpt>
      <trkpt lat="54.1755805015564" lon="7.8949620723724365">
        <ele>9.999999562023526e+24</ele>
        <time>1970-01-01T13:46:10.000Z</time>
      </trkpt>
      <trkpt lat="54.17564022541046" lon="7.894891023635864">
        <ele>9.999999562023526e+24</ele>
        <time>1970-01-01T13:46:16.000Z</time>
      </trkpt>
      <trkpt lat="54.17564857006073" lon="7.894877910614014">
        <ele>9.999999562023526e+24</ele>
        <time>1970-01-01T13:46:16.000Z</time>
      </trkpt>
      <trkpt lat="54.175729274749756" lon="7.894794225692749">
        <ele>9.999999562023526e+24</ele>
        <time>1970-01-01T13:46:24.000Z</time>
      </trkpt>
      <trkpt lat="54.17579519748688" lon="7.8947142362594604">
        <ele>9.999999562023526e+24</ele>
        <time>1970-01-01T13:46:31.000Z</time>
      </trkpt>
      <trkpt lat="54.17580497264862" lon="7.894700765609741">
        <ele>9.999999562023526e+24</ele>
        <time>1970-01-01T13:46:32.000Z</time>
      </trkpt>
      <trkpt lat="54.175846457481384" lon="7.894646406173706">
        <ele>9.999999562023526e+24</ele>
        <time>1970-01-01T13:46:36.000Z</time>
      </trkpt>
      <trkpt lat="54.175865650177" lon="7.8946168422698975">
        <ele>9.999999562023526e+24</ele>
        <time>1970-01-01T13:46:38.000Z</time>
      </trkpt>
      <trkpt lat="54.17587161064148" lon="7.894605398178101">
        <ele>9.999999562023526e+24</ele>
        <time>1970-01-01T13:46:39.000Z</time>
      </trkpt>
      <trkpt lat="54.17587447166443" lon="7.894598722457886">
        <ele>9.999999562023526e+24</ele>
        <time>1970-01-01T13:46:39.000Z</time>
      </trkpt>
      <trkpt lat="54.17587888240814" lon="7.894590258598328">
        <ele>9.999999562023526e+24</ele>
        <time>1970-01-01T13:46:39.000Z</time>
      </trkpt>
      <trkpt lat="54.17589557170868" lon="7.894575715065002">
        <ele>9.999999562023526e+24</ele>
        <time>1970-01-01T13:46:41.000Z</time>
      </trkpt>
      <trkpt lat="54.175899028778076" lon="7.8945746421813965">
        <ele>9.999999562023526e+24</ele>
        <time>1970-01-01T13:46:41.000Z</time>
      </trkpt>
      <trkpt lat="54.175920724868774" lon="7.894578337669373">
        <ele>9.999999562023526e+24</ele>
        <time>1970-01-01T13:46:43.000Z</time>
      </trkpt>
      <trkpt lat="54.17599618434906" lon="7.894632935523987">
        <ele>9.999999562023526e+24</ele>
        <time>1970-01-01T13:46:50.000Z</time>
      </trkpt>
      <trkpt lat="54.17610800266266" lon="7.894606590270996">
        <ele>9.999999562023526e+24</ele>
        <time>1970-01-01T13:46:59.000Z</time>
      </trkpt>
      <trkpt lat="54.17614793777466" lon="7.894605875015259">
        <ele>9.999999562023526e+24</ele>
        <time>1970-01-01T13:47:02.000Z</time>
      </trkpt>
      <trkpt lat="54.176229596138" lon="7.894610643386841">
        <ele>9.999999562023526e+24</ele>
        <time>1970-01-01T13:47:08.000Z</time>
      </trkpt>
      <trkpt lat="54.176342248916626" lon="7.894651889801025">
        <ele>9.999999562023526e+24</ele>
        <time>1970-01-01T13:47:18.000Z</time>
      </trkpt>
      <trkpt lat="54.17642629146576" lon="7.894772529602051">
        <ele>9.999999562023526e+24</ele>
        <time>1970-01-01T13:47:26.000Z</time>
      </trkpt>
      <trkpt lat="54.17643165588379" lon="7.894918918609619">
        <ele>9.999999562023526e+24</ele>
        <time>1970-01-01T13:47:33.000Z</time>
      </trkpt>
      <trkpt lat="54.1764270067215" lon="7.894935607910156">
        <ele>9.999999562023526e+24</ele>
        <time>1970-01-01T13:47:34.000Z</time>
      </trkpt>
      <trkpt lat="54.17642307281494" lon="7.894953608512878">
        <ele>9.999999562023526e+24</ele>
        <time>1970-01-01T13:47:35.000Z</time>
      </trkpt>
      <trkpt lat="54.17638432979584" lon="7.89505410194397">
        <ele>9.999999562023526e+24</ele>
        <time>1970-01-01T13:47:41.000Z</time>
      </trkpt>
      <trkpt lat="54.176257848739624" lon="7.89542031288147">
        <ele>9.999999562023526e+24</ele>
        <time>1970-01-01T13:48:01.000Z</time>
      </trkpt>
      <trkpt lat="54.17625188827515" lon="7.895439863204956">
        <ele>9.999999562023526e+24</ele>
        <time>1970-01-01T13:48:02.000Z</time>
      </trkpt>
      <trkpt lat="54.17623591423035" lon="7.895494222640991">
        <ele>9.999999562023526e+24</ele>
        <time>1970-01-01T13:48:04.000Z</time>
      </trkpt>
      <trkpt lat="54.176209807395935" lon="7.895606160163879">
        <ele>9.999999562023526e+24</ele>
        <time>1970-01-01T13:48:10.000Z</time>
      </trkpt>
      <trkpt lat="54.17619812488556" lon="7.895702004432678">
        <ele>9.999999562023526e+24</ele>
        <time>1970-01-01T13:48:15.000Z</time>
      </trkpt>
      <trkpt lat="54.17618727684021" lon="7.895781755447388">
        <ele>9.999999562023526e+24</ele>
        <time>1970-01-01T13:48:18.000Z</time>
      </trkpt>
      <trkpt lat="54.17617225646973" lon="7.8958494663238525">
        <ele>9.999999562023526e+24</ele>
        <time>1970-01-01T13:48:22.000Z</time>
      </trkpt>
      <trkpt lat="54.17613935470581" lon="7.895951628684998">
        <ele>9.999999562023526e+24</ele>
        <time>1970-01-01T13:48:27.000Z</time>
      </trkpt>
      <trkpt lat="54.17613387107849" lon="7.8959715366363525">
        <ele>9.999999562023526e+24</ele>
        <time>1970-01-01T13:48:28.000Z</time>
      </trkpt>
      <trkpt lat="54.17612659931183" lon="7.895985722541809">
        <ele>9.999999562023526e+24</ele>
        <time>1970-01-01T13:48:29.000Z</time>
      </trkpt>
      <trkpt lat="54.17611598968506" lon="7.895997524261475">
        <ele>9.999999562023526e+24</ele>
        <time>1970-01-01T13:48:30.000Z</time>
      </trkpt>
      <trkpt lat="54.17606556415558" lon="7.896040916442871">
        <ele>9.999999562023526e+24</ele>
        <time>1970-01-01T13:48:35.000Z</time>
      </trkpt>
      <trkpt lat="54.17605376243591" lon="7.8960511684417725">
        <ele>9.999999562023526e+24</ele>
        <time>1970-01-01T13:48:36.000Z</time>
      </trkpt>
      <trkpt lat="54.17604148387909" lon="7.896059513092041">
        <ele>9.999999562023526e+24</ele>
        <time>1970-01-01T13:48:37.000Z</time>
      </trkpt>
      <trkpt lat="54.17596626281738" lon="7.896077632904053">
        <ele>9.999999562023526e+24</ele>
        <time>1970-01-01T13:48:43.000Z</time>
      </trkpt>
      <trkpt lat="54.17593991756439" lon="7.896071791648865">
        <ele>9.999999562023526e+24</ele>
        <time>1970-01-01T13:48:45.000Z</time>
      </trkpt>
      <trkpt lat="54.175912737846375" lon="7.896064758300781">
        <ele>9.999999562023526e+24</ele>
        <time>1970-01-01T13:48:47.000Z</time>
      </trkpt>
      <trkpt lat="54.17580783367157" lon="7.8959609270095825">
        <ele>9.999999562023526e+24</ele>
        <time>1970-01-01T13:48:57.000Z</time>
      </trkpt>
      <trkpt lat="54.17577266693115" lon="7.895869255065918">
        <ele>9.999999562023526e+24</ele>
        <time>1970-01-01T13:49:02.000Z</time>
      </trkpt>
      <trkpt lat="54.175761342048645" lon="7.895747900009155">
        <ele>9.999999562023526e+24</ele>
        <time>1970-01-01T13:49:08.000Z</time>
      </trkpt>
      <trkpt lat="54.17578649520874" lon="7.8954925537109375">
        <ele>9.999999562023526e+24</ele>
        <time>1970-01-01T13:49:20.000Z</time>
      </trkpt>
      <trkpt lat="54.175809383392334" lon="7.895414352416992">
        <ele>9.999999562023526e+24</ele>
        <time>1970-01-01T13:49:24.000Z</time>
      </trkpt>
      <trkpt lat="54.17583870887756" lon="7.895352840423584">
        <ele>9.999999562023526e+24</ele>
        <time>1970-01-01T13:49:28.000Z</time>
      </trkpt>
      <trkpt lat="54.17585241794586" lon="7.8953224420547485">
        <ele>9.999999562023526e+24</ele>
        <time>1970-01-01T13:49:30.000Z</time>
      </trkpt>
      <trkpt lat="54.175902128219604" lon="7.895185708999634">
        <ele>9.999999562023526e+24</ele>
        <time>1970-01-01T13:49:37.000Z</time>
      </trkpt>
      <trkpt lat="54.1759295463562" lon="7.895099639892578">
        <ele>9.999999562023526e+24</ele>
        <time>1970-01-01T13:49:42.000Z</time>
      </trkpt>
      <trkpt lat="54.17597556114197" lon="7.894964337348938">
        <ele>9.999999562023526e+24</ele>
        <time>1970-01-01T13:49:49.000Z</time>
      </trkpt>
      <trkpt lat="54.175994992256165" lon="7.894914388656616">
        <ele>9.999999562023526e+24</ele>
        <time>1970-01-01T13:49:52.000Z</time>
      </trkpt>
      <trkpt lat="54.176007866859436" lon="7.894881010055542">
        <ele>9.999999562023526e+24</ele>
        <time>1970-01-01T13:49:54.000Z</time>
      </trkpt>
      <trkpt lat="54.176020860672" lon="7.89484715461731">
        <ele>9.999999562023526e+24</ele>
        <time>1970-01-01T13:49:56.000Z</time>
      </trkpt>
      <trkpt lat="54.176034331321716" lon="7.894812703132629">
        <ele>9.999999562023526e+24</ele>
        <time>1970-01-01T13:49:58.000Z</time>
      </trkpt>
      <trkpt lat="54.176095962524414" lon="7.894644498825073">
        <ele>9.999999562023526e+24</ele>
        <time>1970-01-01T13:50:07.000Z</time>
      </trkpt>
      <trkpt lat="54.176111340522766" lon="7.89461886882782">
        <ele>9.999999562023526e+24</ele>
        <time>1970-01-01T13:50:09.000Z</time>
      </trkpt>
      <trkpt lat="54.17611920833588" lon="7.894605278968811">
        <ele>9.999999562023526e+24</ele>
        <time>1970-01-01T13:50:10.000Z</time>
      </trkpt>
      <trkpt lat="54.17624604701996" lon="7.894475221633911">
        <ele>9.999999562023526e+24</ele>
        <time>1970-01-01T13:50:21.000Z</time>
      </trkpt>
      <trkpt lat="54.176316142082214" lon="7.894535779953003">
        <ele>9.999999562023526e+24</ele>
        <time>1970-01-01T13:50:28.000Z</time>
      </trkpt>
      <trkpt lat="54.176323890686035" lon="7.89454984664917">
        <ele>9.999999562023526e+24</ele>
        <time>1970-01-01T13:50:29.000Z</time>
      </trkpt>
      <trkpt lat="54.17637872695923" lon="7.894713044166565">
        <ele>9.999999562023526e+24</ele>
        <time>1970-01-01T13:50:37.000Z</time>
      </trkpt>
      <trkpt lat="54.17638659477234" lon="7.8947514295578">
        <ele>9.999999562023526e+24</ele>
        <time>1970-01-01T13:50:39.000Z</time>
      </trkpt>
      <trkpt lat="54.17639660835266" lon="7.894810199737549">
        <ele>9.999999562023526e+24</ele>
        <time>1970-01-01T13:50:42.000Z</time>
      </trkpt>
      <trkpt lat="54.17640256881714" lon="7.894850492477417">
        <ele>9.999999562023526e+24</ele>
        <time>1970-01-01T13:50:44.000Z</time>
      </trkpt>
      <trkpt lat="54.176408886909485" lon="7.894914269447327">
        <ele>9.999999562023526e+24</ele>
        <time>1970-01-01T13:50:47.000Z</time>
      </trkpt>
      <trkpt lat="54.176405906677246" lon="7.895083069801331">
        <ele>9.999999562023526e+24</ele>
        <time>1970-01-01T13:50:55.000Z</time>
      </trkpt>
      <trkpt lat="54.176395893096924" lon="7.895145297050476">
        <ele>9.999999562023526e+24</ele>
        <time>1970-01-01T13:50:58.000Z</time>
      </trkpt>
      <trkpt lat="54.17637073993683" lon="7.895237684249878">
        <ele>9.999999562023526e+24</ele>
        <time>1970-01-01T13:51:03.000Z</time>
      </trkpt>
      <trkpt lat="54.17635655403137" lon="7.8952754735946655">
        <ele>9.999999562023526e+24</ele>
        <time>1970-01-01T13:51:05.000Z</time>
      </trkpt>
      <trkpt lat="54.17634165287018" lon="7.895310282707214">
        <ele>9.999999562023526e+24</ele>
        <time>1970-01-01T13:51:07.000Z</time>
      </trkpt>
      <trkpt lat="54.17624270915985" lon="7.895623326301575">
        <ele>9.999999562023526e+24</ele>
        <time>1970-01-01T13:51:24.000Z</time>
      </trkpt>
      <trkpt lat="54.17622637748718" lon="7.895689129829407">
        <ele>9.999999562023526e+24</ele>
        <time>1970-01-01T13:51:27.000Z</time>
      </trkpt>
      <trkpt lat="54.17621302604675" lon="7.895758271217346">
        <ele>9.999999562023526e+24</ele>
        <time>1970-01-01T13:51:30.000Z</time>
      </trkpt>
      <trkpt lat="54.17616164684296" lon="7.89592719078064">
        <ele>9.999999562023526e+24</ele>
        <time>1970-01-01T13:51:39.000Z</time>
      </trkpt>
      <trkpt lat="54.17605125904083" lon="7.896044373512268">
        <ele>9.999999562023526e+24</ele>
        <time>1970-01-01T13:51:50.000Z</time>
      </trkpt>
      <trkpt lat="54.175891637802124" lon="7.896049618721008">
        <ele>9.999999562023526e+24</ele>
        <time>1970-01-01T13:52:03.000Z</time>
      </trkpt>
      <trkpt lat="54.17578387260437" lon="7.895959258079529">
        <ele>9.999999562023526e+24</ele>
        <time>1970-01-01T13:52:12.000Z</time>
      </trkpt>
      <trkpt lat="54.175764203071594" lon="7.8958306312561035">
        <ele>9.999999562023526e+24</ele>
        <time>1970-01-01T13:52:18.000Z</time>
      </trkpt>
      <trkpt lat="54.17576575279236" lon="7.895801544189453">
        <ele>9.999999562023526e+24</ele>
        <time>1970-01-01T13:52:20.000Z</time>
      </trkpt>
      <trkpt lat="54.1757675409317" lon="7.895787358283997">
        <ele>9.999999562023526e+24</ele>
        <time>1970-01-01T13:52:21.000Z</time>
      </trkpt>
      <trkpt lat="54.17577803134918" lon="7.895730018615723">
        <ele>9.999999562023526e+24</ele>
        <time>1970-01-01T13:52:23.000Z</time>
      </trkpt>
      <trkpt lat="54.17582392692566" lon="7.895549178123474">
        <ele>9.999999562023526e+24</ele>
        <time>1970-01-01T13:52:33.000Z</time>
      </trkpt>
      <trkpt lat="54.175838589668274" lon="7.895503878593445">
        <ele>9.999999562023526e+24</ele>
        <time>1970-01-01T13:52:35.000Z</time>
      </trkpt>
      <trkpt lat="54.17590832710266" lon="7.895280718803406">
        <ele>9.999999562023526e+24</ele>
        <time>1970-01-01T13:52:47.000Z</time>
      </trkpt>
      <trkpt lat="54.175926208496094" lon="7.895224094390869">
        <ele>9.999999562023526e+24</ele>
        <time>1970-01-01T13:52:50.000Z</time>
      </trkpt>
      <trkpt lat="54.17594110965729" lon="7.895183205604553">
        <ele>9.999999562023526e+24</ele>
        <time>1970-01-01T13:52:52.000Z</time>
      </trkpt>
      <trkpt lat="54.17595088481903" lon="7.895156621932983">
        <ele>9.999999562023526e+24</ele>
        <time>1970-01-01T13:52:54.000Z</time>
      </trkpt>
      <trkpt lat="54.17595601081848" lon="7.895143270492554">
        <ele>9.999999562023526e+24</ele>
        <time>1970-01-01T13:52:54.000Z</time>
      </trkpt>
      <trkpt lat="54.17596697807312" lon="7.895115613937378">
        <ele>9.999999562023526e+24</ele>
        <time>1970-01-01T13:52:56.000Z</time>
      </trkpt>
      <trkpt lat="54.17599582672119" lon="7.895053386688232">
        <ele>9.999999562023526e+24</ele>
        <time>1970-01-01T13:53:00.000Z</time>
      </trkpt>
      <trkpt lat="54.17600154876709" lon="7.895039796829224">
        <ele>9.999999562023526e+24</ele>
        <time>1970-01-01T13:53:00.000Z</time>
      </trkpt>
      <trkpt lat="54.17600691318512" lon="7.895026445388794">
        <ele>9.999999562023526e+24</ele>
        <time>1970-01-01T13:53:01.000Z</time>
      </trkpt>
      <trkpt lat="54.17602229118347" lon="7.894984483718872">
        <ele>9.999999562023526e+24</ele>
        <time>1970-01-01T13:53:03.000Z</time>
      </trkpt>
      <trkpt lat="54.17605149745941" lon="7.894901394844055">
        <ele>9.999999562023526e+24</ele>
        <time>1970-01-01T13:53:08.000Z</time>
      </trkpt>
      <trkpt lat="54.17610728740692" lon="7.894789934158325">
        <ele>9.999999562023526e+24</ele>
        <time>1970-01-01T13:53:15.000Z</time>
      </trkpt>
      <trkpt lat="54.17612266540527" lon="7.894769191741943">
        <ele>9.999999562023526e+24</ele>
        <time>1970-01-01T13:53:16.000Z</time>
      </trkpt>
      <trkpt lat="54.17613613605499" lon="7.8947484493255615">
        <ele>9.999999562023526e+24</ele>
        <time>1970-01-01T13:53:18.000Z</time>
      </trkpt>
      <trkpt lat="54.176255226135254" lon="7.894659996032715">
        <ele>9.999999562023526e+24</ele>
        <time>1970-01-01T13:53:28.000Z</time>
      </trkpt>
      <trkpt lat="54.17635667324066" lon="7.894713878631592">
        <ele>9.999999562023526e+24</ele>
        <time>1970-01-01T13:53:37.000Z</time>
      </trkpt>
      <trkpt lat="54.176424741744995" lon="7.894893407821655">
        <ele>9.999999562023526e+24</ele>
        <time>1970-01-01T13:53:47.000Z</time>
      </trkpt>
      <trkpt lat="54.17646145820618" lon="7.89506995677948">
        <ele>9.999999562023526e+24</ele>
        <time>1970-01-01T13:53:56.000Z</time>
      </trkpt>
      <trkpt lat="54.17644274234772" lon="7.895225763320923">
        <ele>9.999999562023526e+24</ele>
        <time>1970-01-01T13:54:03.000Z</time>
      </trkpt>
      <trkpt lat="54.1764315366745" lon="7.895258903503418">
        <ele>9.999999562023526e+24</ele>
        <time>1970-01-01T13:54:05.000Z</time>
      </trkpt>
      <trkpt lat="54.17641890048981" lon="7.895293235778809">
        <ele>9.999999562023526e+24</ele>
        <time>1970-01-01T13:54:07.000Z</time>
      </trkpt>
      <trkpt lat="54.1763973236084" lon="7.895387887954712">
        <ele>9.999999562023526e+24</ele>
        <time>1970-01-01T13:54:12.000Z</time>
      </trkpt>
      <trkpt lat="54.176374316215515" lon="7.89545738697052">
        <ele>9.999999562023526e+24</ele>
        <time>1970-01-01T13:54:15.000Z</time>
      </trkpt>
      <trkpt lat="54.176331520080566" lon="7.895565986633301">
        <ele>9.999999562023526e+24</ele>
        <time>1970-01-01T13:54:21.000Z</time>
      </trkpt>
      <trkpt lat="54.176308155059814" lon="7.895631194114685">
        <ele>9.999999562023526e+24</ele>
        <time>1970-01-01T13:54:25.000Z</time>
      </trkpt>
      <trkpt lat="54.176289439201355" lon="7.8956907987594604">
        <ele>9.999999562023526e+24</ele>
        <time>1970-01-01T13:54:28.000Z</time>
      </trkpt>
      <trkpt lat="54.17626965045929" lon="7.8957672119140625">
        <ele>9.999999562023526e+24</ele>
        <time>1970-01-01T13:54:32.000Z</time>
      </trkpt>
      <trkpt lat="54.17625296115875" lon="7.895827293395996">
        <ele>9.999999562023526e+24</ele>
        <time>1970-01-01T13:54:35.000Z</time>
      </trkpt>
      <trkpt lat="54.176247000694275" lon="7.895887970924377">
        <ele>9.999999562023526e+24</ele>
        <time>1970-01-01T13:54:38.000Z</time>
      </trkpt>
      <trkpt lat="54.176247358322144" lon="7.895931601524353">
        <ele>9.999999562023526e+24</ele>
        <time>1970-01-01T13:54:40.000Z</time>
      </trkpt>
      <trkpt lat="54.176241755485535" lon="7.896045684814453">
        <ele>9.999999562023526e+24</ele>
        <time>1970-01-01T13:54:46.000Z</time>
      </trkpt>
      <trkpt lat="54.176239371299744" lon="7.896116733551025">
        <ele>9.999999562023526e+24</ele>
        <time>1970-01-01T13:54:49.000Z</time>
      </trkpt>
      <trkpt lat="54.17624068260193" lon="7.8961334228515625">
        <ele>9.999999562023526e+24</ele>
        <time>1970-01-01T13:54:50.000Z</time>
      </trkpt>
      <trkpt lat="54.17624223232269" lon="7.89615273475647">
        <ele>9.999999562023526e+24</ele>
        <time>1970-01-01T13:54:51.000Z</time>
      </trkpt>
      <trkpt lat="54.17624342441559" lon="7.8961697816848755">
        <ele>9.999999562023526e+24</ele>
        <time>1970-01-01T13:54:51.000Z</time>
      </trkpt>
      <trkpt lat="54.17624485492706" lon="7.896188497543335">
        <ele>9.999999562023526e+24</ele>
        <time>1970-01-01T13:54:52.000Z</time>
      </trkpt>
      <trkpt lat="54.176247239112854" lon="7.8962074518203735">
        <ele>9.999999562023526e+24</ele>
        <time>1970-01-01T13:54:53.000Z</time>
      </trkpt>
      <trkpt lat="54.176252484321594" lon="7.8962485790252686">
        <ele>9.999999562023526e+24</ele>
        <time>1970-01-01T13:54:55.000Z</time>
      </trkpt>
      <trkpt lat="54.176249504089355" lon="7.896337985992432">
        <ele>9.999999562023526e+24</ele>
        <time>1970-01-01T13:54:59.000Z</time>
      </trkpt>
      <trkpt lat="54.17624914646149" lon="7.8963481187820435">
        <ele>9.999999562023526e+24</ele>
        <time>1970-01-01T13:55:00.000Z</time>
      </trkpt>
      <trkpt lat="54.17625069618225" lon="7.896387457847595">
        <ele>9.999999562023526e+24</ele>
        <time>1970-01-01T13:55:02.000Z</time>
      </trkpt>
      <trkpt lat="54.17625069618225" lon="7.896387457847595">
        <ele>9.999999562023526e+24</ele>
        <time>1970-01-01T13:55:02.000Z</time>
      </trkpt>
      <trkpt lat="54.17625069618225" lon="7.896387457847595">
        <ele>9.999999562023526e+24</ele>
        <time>1970-01-01T13:55:02.000Z</time>
      </trkpt>
      <trkpt lat="54.17625069618225" lon="7.896387457847595">
        <ele>9.999999562023526e+24</ele>
        <time>1970-01-01T13:55:02.000Z</time>
      </trkpt>
      <trkpt lat="54.17625069618225" lon="7.896387457847595">
        <ele>9.999999562023526e+24</ele>
        <time>1970-01-01T13:55:02.000Z</time>
      </trkpt>
      <trkpt lat="54.17625069618225" lon="7.896387457847595">
        <ele>9.999999562023526e+24</ele>
        <time>1970-01-01T13:55:02.000Z</time>
      </trkpt>
      <trkpt lat="54.17625069618225" lon="7.896387457847595">
        <ele>9.999999562023526e+24</ele>
        <time>1970-01-01T13:55:02.000Z</time>
      </trkpt>
      <trkpt lat="54.17625069618225" lon="7.896387457847595">
        <ele>9.999999562023526e+24</ele>
        <time>1970-01-01T13:55:02.000Z</time>
      </trkpt>
      <trkpt lat="54.17625069618225" lon="7.896387457847595">
        <ele>9.999999562023526e+24</ele>
        <time>1970-01-01T13:55:02.000Z</time>
      </trkpt>
      <trkpt lat="54.17625069618225" lon="7.896387457847595">
        <ele>9.999999562023526e+24</ele>
        <time>1970-01-01T13:55:02.000Z</time>
      </trkpt>
      <trkpt lat="54.17625069618225" lon="7.896387457847595">
        <ele>9.999999562023526e+24</ele>
        <time>1970-01-01T13:55:02.000Z</time>
      </trkpt>
      <trkpt lat="54.17625069618225" lon="7.896387457847595">
        <ele>9.999999562023526e+24</ele>
        <time>1970-01-01T13:55:02.000Z</time>
      </trkpt>
      <trkpt lat="54.176257491111755" lon="7.8963741064071655">
        <ele>9.999999562023526e+24</ele>
        <time>1970-01-01T13:55:02.000Z</time>
      </trkpt>
      <trkpt lat="54.17627727985382" lon="7.896342158317566">
        <ele>9.999999562023526e+24</ele>
        <time>1970-01-01T13:55:05.000Z</time>
      </trkpt>
      <trkpt lat="54.1762809753418" lon="7.896321654319763">
        <ele>9.999999562023526e+24</ele>
        <time>1970-01-01T13:55:06.000Z</time>
      </trkpt>
      <trkpt lat="54.1762809753418" lon="7.896321654319763">
        <ele>9.999999562023526e+24</ele>
        <time>1970-01-01T13:55:06.000Z</time>
      </trkpt>
      <trkpt lat="54.1762809753418" lon="7.896321654319763">
        <ele>9.999999562023526e+24</ele>
        <time>1970-01-01T13:55:06.000Z</time>
      </trkpt>
      <trkpt lat="54.1762809753418" lon="7.896321654319763">
        <ele>9.999999562023526e+24</ele>
        <time>1970-01-01T13:55:06.000Z</time>
      </trkpt>
      <trkpt lat="54.1762809753418" lon="7.896321654319763">
        <ele>9.999999562023526e+24</ele>
        <time>1970-01-01T13:55:06.000Z</time>
      </trkpt>
      <trkpt lat="54.1762809753418" lon="7.896321654319763">
        <ele>9.999999562023526e+24</ele>
        <time>1970-01-01T13:55:06.000Z</time>
      </trkpt>
      <trkpt lat="54.1762809753418" lon="7.896321654319763">
        <ele>9.999999562023526e+24</ele>
        <time>1970-01-01T13:55:06.000Z</time>
      </trkpt>
      <trkpt lat="54.17627727985382" lon="7.896327614784241">
        <ele>9.999999562023526e+24</ele>
        <time>1970-01-01T13:55:06.000Z</time>
      </trkpt>
      <trkpt lat="54.176275968551636" lon="7.896331787109375">
        <ele>9.999999562023526e+24</ele>
        <time>1970-01-01T13:55:06.000Z</time>
      </trkpt>
      <trkpt lat="54.176273345947266" lon="7.896333694458008">
        <ele>9.999999562023526e+24</ele>
        <time>1970-01-01T13:55:07.000Z</time>
      </trkpt>
      <trkpt lat="54.17627203464508" lon="7.896334886550903">
        <ele>9.999999562023526e+24</ele>
        <time>1970-01-01T13:55:07.000Z</time>
      </trkpt>
      <trkpt lat="54.17627167701721" lon="7.8963353633880615">
        <ele>9.999999562023526e+24</ele>
        <time>1970-01-01T13:55:07.000Z</time>
      </trkpt>
      <trkpt lat="54.17627024650574" lon="7.8963401317596436">
        <ele>9.999999562023526e+24</ele>
        <time>1970-01-01T13:55:07.000Z</time>
      </trkpt>
      <trkpt lat="54.176268577575684" lon="7.896348834037781">
        <ele>9.999999562023526e+24</ele>
        <time>1970-01-01T13:55:07.000Z</time>
      </trkpt>
      <trkpt lat="54.17626869678497" lon="7.896346926689148">
        <ele>9.999999562023526e+24</ele>
        <time>1970-01-01T13:55:07.000Z</time>
      </trkpt>
      <trkpt lat="54.17627513408661" lon="7.896345376968384">
        <ele>9.999999562023526e+24</ele>
        <time>1970-01-01T13:55:08.000Z</time>
      </trkpt>
      <trkpt lat="54.17627024650574" lon="7.8963401317596436">
        <ele>9.999999562023526e+24</ele>
        <time>1970-01-01T13:55:08.000Z</time>
      </trkpt>
      <trkpt lat="54.17627024650574" lon="7.8963401317596436">
        <ele>9.999999562023526e+24</ele>
        <time>1970-01-01T13:55:08.000Z</time>
      </trkpt>
      <trkpt lat="54.17627024650574" lon="7.8963401317596436">
        <ele>9.999999562023526e+24</ele>
        <time>1970-01-01T13:55:08.000Z</time>
      </trkpt>
      <trkpt lat="54.17627024650574" lon="7.8963401317596436">
        <ele>9.999999562023526e+24</ele>
        <time>1970-01-01T13:55:08.000Z</time>
      </trkpt>
      <trkpt lat="54.17627024650574" lon="7.8963401317596436">
        <ele>9.999999562023526e+24</ele>
        <time>1970-01-01T13:55:08.000Z</time>
      </trkpt>
      <trkpt lat="54.17627024650574" lon="7.8963401317596436">
        <ele>9.999999562023526e+24</ele>
        <time>1970-01-01T13:55:08.000Z</time>
      </trkpt>
      <trkpt lat="54.17627024650574" lon="7.8963401317596436">
        <ele>9.999999562023526e+24</ele>
        <time>1970-01-01T13:55:08.000Z</time>
      </trkpt>
      <trkpt lat="54.17627024650574" lon="7.8963401317596436">
        <ele>9.999999562023526e+24</ele>
        <time>1970-01-01T13:55:08.000Z</time>
      </trkpt>
      <trkpt lat="54.17627561092377" lon="7.8963398933410645">
        <ele>9.999999562023526e+24</ele>
        <time>1970-01-01T13:55:09.000Z</time>
      </trkpt>
      <trkpt lat="54.17627024650574" lon="7.8963401317596436">
        <ele>9.999999562023526e+24</ele>
        <time>1970-01-01T13:55:09.000Z</time>
      </trkpt>
      <trkpt lat="54.17627024650574" lon="7.8963401317596436">
        <ele>9.999999562023526e+24</ele>
        <time>1970-01-01T13:55:09.000Z</time>
      </trkpt>
      <trkpt lat="54.17627024650574" lon="7.8963401317596436">
        <ele>9.999999562023526e+24</ele>
        <time>1970-01-01T13:55:09.000Z</time>
      </trkpt>
      <trkpt lat="54.17627024650574" lon="7.8963401317596436">
        <ele>9.999999562023526e+24</ele>
        <time>1970-01-01T13:55:09.000Z</time>
      </trkpt>
      <trkpt lat="54.17627024650574" lon="7.8963401317596436">
        <ele>9.999999562023526e+24</ele>
        <time>1970-01-01T13:55:09.000Z</time>
      </trkpt>
      <trkpt lat="54.17627024650574" lon="7.8963401317596436">
        <ele>9.999999562023526e+24</ele>
        <time>1970-01-01T13:55:09.000Z</time>
      </trkpt>
      <trkpt lat="54.17627394199371" lon="7.896339058876038">
        <ele>9.999999562023526e+24</ele>
        <time>1970-01-01T13:55:10.000Z</time>
      </trkpt>
      <trkpt lat="54.17627465724945" lon="7.896333575248718">
        <ele>9.999999562023526e+24</ele>
        <time>1970-01-01T13:55:10.000Z</time>
      </trkpt>
      <trkpt lat="54.17627024650574" lon="7.8963401317596436">
        <ele>9.999999562023526e+24</ele>
        <time>1970-01-01T13:55:10.000Z</time>
      </trkpt>
      <trkpt lat="54.176276326179504" lon="7.89633572101593">
        <ele>9.999999562023526e+24</ele>
        <time>1970-01-01T13:55:11.000Z</time>
      </trkpt>
      <trkpt lat="54.176276087760925" lon="7.896319270133972">
        <ele>9.999999562023526e+24</ele>
        <time>1970-01-01T13:55:12.000Z</time>
      </trkpt>
      <trkpt lat="54.17627823352814" lon="7.896321415901184">
        <ele>9.999999562023526e+24</ele>
        <time>1970-01-01T13:55:12.000Z</time>
      </trkpt>
      <trkpt lat="54.176278948783875" lon="7.8963388204574585">
        <ele>9.999999562023526e+24</ele>
        <time>1970-01-01T13:55:13.000Z</time>
      </trkpt>
      <trkpt lat="54.17627024650574" lon="7.8963401317596436">
        <ele>9.999999562023526e+24</ele>
        <time>1970-01-01T13:55:13.000Z</time>
      </trkpt>
      <trkpt lat="54.17627024650574" lon="7.8963401317596436">
        <ele>9.999999562023526e+24</ele>
        <time>1970-01-01T13:55:13.000Z</time>
      </trkpt>
      <trkpt lat="54.17627024650574" lon="7.8963401317596436">
        <ele>9.999999562023526e+24</ele>
        <time>1970-01-01T13:55:13.000Z</time>
      </trkpt>
      <trkpt lat="54.17627024650574" lon="7.8963401317596436">
        <ele>9.999999562023526e+24</ele>
        <time>1970-01-01T13:55:13.000Z</time>
      </trkpt>
      <trkpt lat="54.17627024650574" lon="7.8963401317596436">
        <ele>9.999999562023526e+24</ele>
        <time>1970-01-01T13:55:13.000Z</time>
      </trkpt>
      <trkpt lat="54.17627024650574" lon="7.8963401317596436">
        <ele>9.999999562023526e+24</ele>
        <time>1970-01-01T13:55:13.000Z</time>
      </trkpt>
      <trkpt lat="54.17628085613251" lon="7.8963316679000854">
        <ele>9.999999562023526e+24</ele>
        <time>1970-01-01T13:55:14.000Z</time>
      </trkpt>
      <trkpt lat="54.17627024650574" lon="7.8963401317596436">
        <ele>9.999999562023526e+24</ele>
        <time>1970-01-01T13:55:15.000Z</time>
      </trkpt>
      <trkpt lat="54.17627990245819" lon="7.896325707435608">
        <ele>9.999999562023526e+24</ele>
        <time>1970-01-01T13:55:16.000Z</time>
      </trkpt>
      <trkpt lat="54.17627024650574" lon="7.8963401317596436">
        <ele>9.999999562023526e+24</ele>
        <time>1970-01-01T13:55:17.000Z</time>
      </trkpt>
      <trkpt lat="54.17627477645874" lon="7.896331548690796">
        <ele>9.999999562023526e+24</ele>
        <time>1970-01-01T13:55:18.000Z</time>
      </trkpt>
      <trkpt lat="54.17625081539154" lon="7.896342158317566">
        <ele>9.999999562023526e+24</ele>
        <time>1970-01-01T13:55:20.000Z</time>
      </trkpt>
      <trkpt lat="54.17625081539154" lon="7.896342158317566">
        <ele>9.999999562023526e+24</ele>
        <time>1970-01-01T13:55:20.000Z</time>
      </trkpt>
      <trkpt lat="54.17625081539154" lon="7.896342158317566">
        <ele>9.999999562023526e+24</ele>
        <time>1970-01-01T13:55:20.000Z</time>
      </trkpt>
      <trkpt lat="54.17625081539154" lon="7.896342158317566">
        <ele>9.999999562023526e+24</ele>
        <time>1970-01-01T13:55:20.000Z</time>
      </trkpt>
      <trkpt lat="54.17625081539154" lon="7.8963422775268555">
        <ele>9.999999562023526e+24</ele>
        <time>1970-01-01T13:55:20.000Z</time>
      </trkpt>
      <trkpt lat="54.17625081539154" lon="7.896342158317566">
        <ele>9.999999562023526e+24</ele>
        <time>1970-01-01T13:55:20.000Z</time>
      </trkpt>
      <trkpt lat="54.17625081539154" lon="7.896342158317566">
        <ele>9.999999562023526e+24</ele>
        <time>1970-01-01T13:55:20.000Z</time>
      </trkpt>
      <trkpt lat="54.17625081539154" lon="7.896342158317566">
        <ele>9.999999562023526e+24</ele>
        <time>1970-01-01T13:55:20.000Z</time>
      </trkpt>
      <trkpt lat="54.17625594139099" lon="7.896339297294617">
        <ele>9.999999562023526e+24</ele>
        <time>1970-01-01T13:55:20.000Z</time>
      </trkpt>
      <trkpt lat="54.17625677585602" lon="7.896338224411011">
        <ele>9.999999562023526e+24</ele>
        <time>1970-01-01T13:55:20.000Z</time>
      </trkpt>
      <trkpt lat="54.17625081539154" lon="7.896342158317566">
        <ele>9.999999562023526e+24</ele>
        <time>1970-01-01T13:55:21.000Z</time>
      </trkpt>
      <trkpt lat="54.17625081539154" lon="7.896342158317566">
        <ele>9.999999562023526e+24</ele>
        <time>1970-01-01T13:55:21.000Z</time>
      </trkpt>
      <trkpt lat="54.17625081539154" lon="7.896342158317566">
        <ele>9.999999562023526e+24</ele>
        <time>1970-01-01T13:55:21.000Z</time>
      </trkpt>
      <trkpt lat="54.176254749298096" lon="7.8963401317596436">
        <ele>9.999999562023526e+24</ele>
        <time>1970-01-01T13:55:21.000Z</time>
      </trkpt>
      <trkpt lat="54.17626917362213" lon="7.896318197250366">
        <ele>9.999999562023526e+24</ele>
        <time>1970-01-01T13:55:23.000Z</time>
      </trkpt>
      <trkpt lat="54.17626976966858" lon="7.896315813064575">
        <ele>9.999999562023526e+24</ele>
        <time>1970-01-01T13:55:23.000Z</time>
      </trkpt>
      <trkpt lat="54.17626976966858" lon="7.896315813064575">
        <ele>9.999999562023526e+24</ele>
        <time>1970-01-01T13:55:23.000Z</time>
      </trkpt>
      <trkpt lat="54.17626976966858" lon="7.896315813064575">
        <ele>9.999999562023526e+24</ele>
        <time>1970-01-01T13:55:23.000Z</time>
      </trkpt>
      <trkpt lat="54.17626976966858" lon="7.896315813064575">
        <ele>9.999999562023526e+24</ele>
        <time>1970-01-01T13:55:23.000Z</time>
      </trkpt>
      <trkpt lat="54.17626929283142" lon="7.896324992179871">
        <ele>9.999999562023526e+24</ele>
        <time>1970-01-01T13:55:23.000Z</time>
      </trkpt>
      <trkpt lat="54.17626976966858" lon="7.896315813064575">
        <ele>9.999999562023526e+24</ele>
        <time>1970-01-01T13:55:24.000Z</time>
      </trkpt>
      <trkpt lat="54.17626976966858" lon="7.896315813064575">
        <ele>9.999999562023526e+24</ele>
        <time>1970-01-01T13:55:24.000Z</time>
      </trkpt>
      <trkpt lat="54.17626976966858" lon="7.896315813064575">
        <ele>9.999999562023526e+24</ele>
        <time>1970-01-01T13:55:24.000Z</time>
      </trkpt>
      <trkpt lat="54.17626976966858" lon="7.896315813064575">
        <ele>9.999999562023526e+24</ele>
        <time>1970-01-01T13:55:24.000Z</time>
      </trkpt>
      <trkpt lat="54.17626976966858" lon="7.896315813064575">
        <ele>9.999999562023526e+24</ele>
        <time>1970-01-01T13:55:24.000Z</time>
      </trkpt>
      <trkpt lat="54.17626976966858" lon="7.896315813064575">
        <ele>9.999999562023526e+24</ele>
        <time>1970-01-01T13:55:24.000Z</time>
      </trkpt>
      <trkpt lat="54.17626976966858" lon="7.896315813064575">
        <ele>9.999999562023526e+24</ele>
        <time>1970-01-01T13:55:24.000Z</time>
      </trkpt>
      <trkpt lat="54.17626976966858" lon="7.896315813064575">
        <ele>9.999999562023526e+24</ele>
        <time>1970-01-01T13:55:24.000Z</time>
      </trkpt>
      <trkpt lat="54.17626976966858" lon="7.896315813064575">
        <ele>9.999999562023526e+24</ele>
        <time>1970-01-01T13:55:24.000Z</time>
      </trkpt>
      <trkpt lat="54.17626976966858" lon="7.896315813064575">
        <ele>9.999999562023526e+24</ele>
        <time>1970-01-01T13:55:24.000Z</time>
      </trkpt>
      <trkpt lat="54.17626976966858" lon="7.896315813064575">
        <ele>9.999999562023526e+24</ele>
        <time>1970-01-01T13:55:24.000Z</time>
      </trkpt>
      <trkpt lat="54.17626976966858" lon="7.896315813064575">
        <ele>9.999999562023526e+24</ele>
        <time>1970-01-01T13:55:24.000Z</time>
      </trkpt>
      <trkpt lat="54.17626976966858" lon="7.896315813064575">
        <ele>9.999999562023526e+24</ele>
        <time>1970-01-01T13:55:24.000Z</time>
      </trkpt>
      <trkpt lat="54.17626976966858" lon="7.896315813064575">
        <ele>9.999999562023526e+24</ele>
        <time>1970-01-01T13:55:24.000Z</time>
      </trkpt>
      <trkpt lat="54.17626976966858" lon="7.896315813064575">
        <ele>9.999999562023526e+24</ele>
        <time>1970-01-01T13:55:24.000Z</time>
      </trkpt>
      <trkpt lat="54.17626976966858" lon="7.896315813064575">
        <ele>9.999999562023526e+24</ele>
        <time>1970-01-01T13:55:24.000Z</time>
      </trkpt>
      <trkpt lat="54.17626976966858" lon="7.896315813064575">
        <ele>9.999999562023526e+24</ele>
        <time>1970-01-01T13:55:24.000Z</time>
      </trkpt>
      <trkpt lat="54.17626976966858" lon="7.896315813064575">
        <ele>9.999999562023526e+24</ele>
        <time>1970-01-01T13:55:24.000Z</time>
      </trkpt>
      <trkpt lat="54.17627394199371" lon="7.8963035345077515">
        <ele>9.999999562023526e+24</ele>
        <time>1970-01-01T13:55:24.000Z</time>
      </trkpt>
      <trkpt lat="54.17626976966858" lon="7.896315813064575">
        <ele>9.999999562023526e+24</ele>
        <time>1970-01-01T13:55:25.000Z</time>
      </trkpt>
      <trkpt lat="54.17626976966858" lon="7.896315813064575">
        <ele>9.999999562023526e+24</ele>
        <time>1970-01-01T13:55:25.000Z</time>
      </trkpt>
      <trkpt lat="54.17626976966858" lon="7.896315813064575">
        <ele>9.999999562023526e+24</ele>
        <time>1970-01-01T13:55:25.000Z</time>
      </trkpt>
      <trkpt lat="54.17626976966858" lon="7.896315813064575">
        <ele>9.999999562023526e+24</ele>
        <time>1970-01-01T13:55:25.000Z</time>
      </trkpt>
      <trkpt lat="54.17626976966858" lon="7.896315813064575">
        <ele>9.999999562023526e+24</ele>
        <time>1970-01-01T13:55:25.000Z</time>
      </trkpt>
      <trkpt lat="54.17626976966858" lon="7.896315813064575">
        <ele>9.999999562023526e+24</ele>
        <time>1970-01-01T13:55:25.000Z</time>
      </trkpt>
      <trkpt lat="54.17626976966858" lon="7.896315813064575">
        <ele>9.999999562023526e+24</ele>
        <time>1970-01-01T13:55:25.000Z</time>
      </trkpt>
      <trkpt lat="54.17626976966858" lon="7.896315813064575">
        <ele>9.999999562023526e+24</ele>
        <time>1970-01-01T13:55:25.000Z</time>
      </trkpt>
      <trkpt lat="54.176275849342346" lon="7.896294474601746">
        <ele>9.999999562023526e+24</ele>
        <time>1970-01-01T13:55:26.000Z</time>
      </trkpt>
      <trkpt lat="54.17627573013306" lon="7.8962918519973755">
        <ele>9.999999562023526e+24</ele>
        <time>1970-01-01T13:55:26.000Z</time>
      </trkpt>
      <trkpt lat="54.176275849342346" lon="7.896294474601746">
        <ele>9.999999562023526e+24</ele>
        <time>1970-01-01T13:55:26.000Z</time>
      </trkpt>
      <trkpt lat="54.176275849342346" lon="7.896294474601746">
        <ele>9.999999562023526e+24</ele>
        <time>1970-01-01T13:55:26.000Z</time>
      </trkpt>
      <trkpt lat="54.176275849342346" lon="7.896294474601746">
        <ele>9.999999562023526e+24</ele>
        <time>1970-01-01T13:55:26.000Z</time>
      </trkpt>
      <trkpt lat="54.176275849342346" lon="7.896294474601746">
        <ele>9.999999562023526e+24</ele>
        <time>1970-01-01T13:55:26.000Z</time>
      </trkpt>
      <trkpt lat="54.176275849342346" lon="7.896294474601746">
        <ele>9.999999562023526e+24</ele>
        <time>1970-01-01T13:55:26.000Z</time>
      </trkpt>
      <trkpt lat="54.176275849342346" lon="7.896294474601746">
        <ele>9.999999562023526e+24</ele>
        <time>1970-01-01T13:55:26.000Z</time>
      </trkpt>
      <trkpt lat="54.176275849342346" lon="7.896294474601746">
        <ele>9.999999562023526e+24</ele>
        <time>1970-01-01T13:55:26.000Z</time>
      </trkpt>
      <trkpt lat="54.176281094551086" lon="7.896287202835083">
        <ele>9.999999562023526e+24</ele>
        <time>1970-01-01T13:55:27.000Z</time>
      </trkpt>
      <trkpt lat="54.176275849342346" lon="7.896294474601746">
        <ele>9.999999562023526e+24</ele>
        <time>1970-01-01T13:55:27.000Z</time>
      </trkpt>
      <trkpt lat="54.176275849342346" lon="7.896294474601746">
        <ele>9.999999562023526e+24</ele>
        <time>1970-01-01T13:55:27.000Z</time>
      </trkpt>
      <trkpt lat="54.176275849342346" lon="7.896294474601746">
        <ele>9.999999562023526e+24</ele>
        <time>1970-01-01T13:55:27.000Z</time>
      </trkpt>
      <trkpt lat="54.176275849342346" lon="7.896294474601746">
        <ele>9.999999562023526e+24</ele>
        <time>1970-01-01T13:55:27.000Z</time>
      </trkpt>
      <trkpt lat="54.176275849342346" lon="7.896294474601746">
        <ele>9.999999562023526e+24</ele>
        <time>1970-01-01T13:55:27.000Z</time>
      </trkpt>
      <trkpt lat="54.176275849342346" lon="7.896294474601746">
        <ele>9.999999562023526e+24</ele>
        <time>1970-01-01T13:55:27.000Z</time>
      </trkpt>
      <trkpt lat="54.17628264427185" lon="7.896286725997925">
        <ele>9.999999562023526e+24</ele>
        <time>1970-01-01T13:55:28.000Z</time>
      </trkpt>
      <trkpt lat="54.17628073692322" lon="7.896302103996277">
        <ele>9.999999562023526e+24</ele>
        <time>1970-01-01T13:55:29.000Z</time>
      </trkpt>
      <trkpt lat="54.1762809753418" lon="7.896303415298462">
        <ele>9.999999562023526e+24</ele>
        <time>1970-01-01T13:55:29.000Z</time>
      </trkpt>
      <trkpt lat="54.17628538608551" lon="7.896301746368408">
        <ele>9.999999562023526e+24</ele>
        <time>1970-01-01T13:55:29.000Z</time>
      </trkpt>
      <trkpt lat="54.1762889623642" lon="7.896300196647644">
        <ele>9.999999562023526e+24</ele>
        <time>1970-01-01T13:55:30.000Z</time>
      </trkpt>
      <trkpt lat="54.17629432678223" lon="7.896298408508301">
        <ele>9.999999562023526e+24</ele>
        <time>1970-01-01T13:55:30.000Z</time>
      </trkpt>
      <trkpt lat="54.176294565200806" lon="7.89629852771759">
        <ele>9.999999562023526e+24</ele>
        <time>1970-01-01T13:55:30.000Z</time>
      </trkpt>
      <trkpt lat="54.176294565200806" lon="7.89629852771759">
        <ele>9.999999562023526e+24</ele>
        <time>1970-01-01T13:55:30.000Z</time>
      </trkpt>
      <trkpt lat="54.1762957572937" lon="7.896299958229065">
        <ele>9.999999562023526e+24</ele>
        <time>1970-01-01T13:55:30.000Z</time>
      </trkpt>
      <trkpt lat="54.176294565200806" lon="7.89629852771759">
        <ele>9.999999562023526e+24</ele>
        <time>1970-01-01T13:55:30.000Z</time>
      </trkpt>
      <trkpt lat="54.176294565200806" lon="7.89629852771759">
        <ele>9.999999562023526e+24</ele>
        <time>1970-01-01T13:55:30.000Z</time>
      </trkpt>
      <trkpt lat="54.176294565200806" lon="7.89629852771759">
        <ele>9.999999562023526e+24</ele>
        <time>1970-01-01T13:55:30.000Z</time>
      </trkpt>
      <trkpt lat="54.176294565200806" lon="7.89629852771759">
        <ele>9.999999562023526e+24</ele>
        <time>1970-01-01T13:55:30.000Z</time>
      </trkpt>
      <trkpt lat="54.176289796829224" lon="7.896320819854736">
        <ele>9.999999562023526e+24</ele>
        <time>1970-01-01T13:55:31.000Z</time>
      </trkpt>
      <trkpt lat="54.176289677619934" lon="7.896320819854736">
        <ele>9.999999562023526e+24</ele>
        <time>1970-01-01T13:55:31.000Z</time>
      </trkpt>
      <trkpt lat="54.176281571388245" lon="7.896354079246521">
        <ele>9.999999562023526e+24</ele>
        <time>1970-01-01T13:55:33.000Z</time>
      </trkpt>
      <trkpt lat="54.17628014087677" lon="7.896360754966736">
        <ele>9.999999562023526e+24</ele>
        <time>1970-01-01T13:55:33.000Z</time>
      </trkpt>
      <trkpt lat="54.17628014087677" lon="7.896360754966736">
        <ele>9.999999562023526e+24</ele>
        <time>1970-01-01T13:55:33.000Z</time>
      </trkpt>
      <trkpt lat="54.17627310752869" lon="7.896356582641602">
        <ele>9.999999562023526e+24</ele>
        <time>1970-01-01T13:55:34.000Z</time>
      </trkpt>
      <trkpt lat="54.17627394199371" lon="7.89635956287384">
        <ele>9.999999562023526e+24</ele>
        <time>1970-01-01T13:55:34.000Z</time>
      </trkpt>
      <trkpt lat="54.17627727985382" lon="7.896359801292419">
        <ele>9.999999562023526e+24</ele>
        <time>1970-01-01T13:55:34.000Z</time>
      </trkpt>
      <trkpt lat="54.17627274990082" lon="7.896355748176575">
        <ele>9.999999562023526e+24</ele>
        <time>1970-01-01T13:55:35.000Z</time>
      </trkpt>
      <trkpt lat="54.176268577575684" lon="7.896357178688049">
        <ele>9.999999562023526e+24</ele>
        <time>1970-01-01T13:55:35.000Z</time>
      </trkpt>
      <trkpt lat="54.17625379562378" lon="7.896376252174377">
        <ele>9.999999562023526e+24</ele>
        <time>1970-01-01T13:55:37.000Z</time>
      </trkpt>
      <trkpt lat="54.176252365112305" lon="7.896376132965088">
        <ele>9.999999562023526e+24</ele>
        <time>1970-01-01T13:55:37.000Z</time>
      </trkpt>
      <trkpt lat="54.176254749298096" lon="7.89637565612793">
        <ele>9.999999562023526e+24</ele>
        <time>1970-01-01T13:55:37.000Z</time>
      </trkpt>
      <trkpt lat="54.176252365112305" lon="7.896376132965088">
        <ele>9.999999562023526e+24</ele>
        <time>1970-01-01T13:55:37.000Z</time>
      </trkpt>
      <trkpt lat="54.176252365112305" lon="7.896376132965088">
        <ele>9.999999562023526e+24</ele>
        <time>1970-01-01T13:55:37.000Z</time>
      </trkpt>
      <trkpt lat="54.176255226135254" lon="7.896378993988037">
        <ele>9.999999562023526e+24</ele>
        <time>1970-01-01T13:55:37.000Z</time>
      </trkpt>
      <trkpt lat="54.17625570297241" lon="7.896377682685852">
        <ele>9.999999562023526e+24</ele>
        <time>1970-01-01T13:55:37.000Z</time>
      </trkpt>
      <trkpt lat="54.176252365112305" lon="7.896376132965088">
        <ele>9.999999562023526e+24</ele>
        <time>1970-01-01T13:55:38.000Z</time>
      </trkpt>
      <trkpt lat="54.17625558376312" lon="7.896381974220276">
        <ele>9.999999562023526e+24</ele>
        <time>1970-01-01T13:55:38.000Z</time>
      </trkpt>
      <trkpt lat="54.176257252693176" lon="7.8963916301727295">
        <ele>9.999999562023526e+24</ele>
        <time>1970-01-01T13:55:39.000Z</time>
      </trkpt>
      <trkpt lat="54.17625844478607" lon="7.89640486240387">
        <ele>9.999999562023526e+24</ele>
        <time>1970-01-01T13:55:39.000Z</time>
      </trkpt>
      <trkpt lat="54.17625820636749" lon="7.896407604217529">
        <ele>9.999999562023526e+24</ele>
        <time>1970-01-01T13:55:39.000Z</time>
      </trkpt>
      <trkpt lat="54.17625820636749" lon="7.896394610404968">
        <ele>9.999999562023526e+24</ele>
        <time>1970-01-01T13:55:40.000Z</time>
      </trkpt>
      <trkpt lat="54.17625641822815" lon="7.8963823318481445">
        <ele>9.999999562023526e+24</ele>
        <time>1970-01-01T13:55:41.000Z</time>
      </trkpt>
      <trkpt lat="54.17625641822815" lon="7.8963823318481445">
        <ele>9.999999562023526e+24</ele>
        <time>1970-01-01T13:55:41.000Z</time>
      </trkpt>
      <trkpt lat="54.17625558376312" lon="7.896405577659607">
        <ele>9.999999562023526e+24</ele>
        <time>1970-01-01T13:55:42.000Z</time>
      </trkpt>
      <trkpt lat="54.17625415325165" lon="7.896432042121887">
        <ele>9.999999562023526e+24</ele>
        <time>1970-01-01T13:55:43.000Z</time>
      </trkpt>
      <trkpt lat="54.17625331878662" lon="7.8964314460754395">
        <ele>9.999999562023526e+24</ele>
        <time>1970-01-01T13:55:43.000Z</time>
      </trkpt>
      <trkpt lat="54.176247239112854" lon="7.896411180496216">
        <ele>9.999999562023526e+24</ele>
        <time>1970-01-01T13:55:44.000Z</time>
      </trkpt>
      <trkpt lat="54.17624568939209" lon="7.8964104652404785">
        <ele>9.999999562023526e+24</ele>
        <time>1970-01-01T13:55:44.000Z</time>
      </trkpt>
      <trkpt lat="54.176244020462036" lon="7.896405220031738">
        <ele>9.999999562023526e+24</ele>
        <time>1970-01-01T13:55:44.000Z</time>
      </trkpt>
      <trkpt lat="54.17624366283417" lon="7.896403670310974">
        <ele>9.999999562023526e+24</ele>
        <time>1970-01-01T13:55:45.000Z</time>
      </trkpt>
      <trkpt lat="54.17624366283417" lon="7.896403670310974">
        <ele>9.999999562023526e+24</ele>
        <time>1970-01-01T13:55:45.000Z</time>
      </trkpt>
      <trkpt lat="54.17624366283417" lon="7.896403670310974">
        <ele>9.999999562023526e+24</ele>
        <time>1970-01-01T13:55:45.000Z</time>
      </trkpt>
      <trkpt lat="54.17624366283417" lon="7.896403670310974">
        <ele>9.999999562023526e+24</ele>
        <time>1970-01-01T13:55:45.000Z</time>
      </trkpt>
      <trkpt lat="54.176249623298645" lon="7.896398901939392">
        <ele>9.999999562023526e+24</ele>
        <time>1970-01-01T13:55:45.000Z</time>
      </trkpt>
      <trkpt lat="54.17624366283417" lon="7.896403670310974">
        <ele>9.999999562023526e+24</ele>
        <time>1970-01-01T13:55:46.000Z</time>
      </trkpt>
      <trkpt lat="54.17624366283417" lon="7.896403670310974">
        <ele>9.999999562023526e+24</ele>
        <time>1970-01-01T13:55:46.000Z</time>
      </trkpt>
      <trkpt lat="54.17624366283417" lon="7.896403670310974">
        <ele>9.999999562023526e+24</ele>
        <time>1970-01-01T13:55:46.000Z</time>
      </trkpt>
      <trkpt lat="54.17625677585602" lon="7.896373987197876">
        <ele>9.999999562023526e+24</ele>
        <time>1970-01-01T13:55:47.000Z</time>
      </trkpt>
      <trkpt lat="54.17625665664673" lon="7.89637291431427">
        <ele>9.999999562023526e+24</ele>
        <time>1970-01-01T13:55:47.000Z</time>
      </trkpt>
      <trkpt lat="54.17625665664673" lon="7.89637291431427">
        <ele>9.999999562023526e+24</ele>
        <time>1970-01-01T13:55:47.000Z</time>
      </trkpt>
      <trkpt lat="54.176265597343445" lon="7.896343469619751">
        <ele>9.999999562023526e+24</ele>
        <time>1970-01-01T13:55:49.000Z</time>
      </trkpt>
      <trkpt lat="54.17626678943634" lon="7.896324396133423">
        <ele>9.999999562023526e+24</ele>
        <time>1970-01-01T13:55:50.000Z</time>
      </trkpt>
      <trkpt lat="54.17626976966858" lon="7.896313786506653">
        <ele>9.999999562023526e+24</ele>
        <time>1970-01-01T13:55:50.000Z</time>
      </trkpt>
      <trkpt lat="54.17626988887787" lon="7.8963130712509155">
        <ele>9.999999562023526e+24</ele>
        <time>1970-01-01T13:55:50.000Z</time>
      </trkpt>
      <trkpt lat="54.17626988887787" lon="7.8963130712509155">
        <ele>9.999999562023526e+24</ele>
        <time>1970-01-01T13:55:50.000Z</time>
      </trkpt>
      <trkpt lat="54.17626988887787" lon="7.8963130712509155">
        <ele>9.999999562023526e+24</ele>
        <time>1970-01-01T13:55:50.000Z</time>
      </trkpt>
      <trkpt lat="54.17626988887787" lon="7.8963130712509155">
        <ele>9.999999562023526e+24</ele>
        <time>1970-01-01T13:55:50.000Z</time>
      </trkpt>
      <trkpt lat="54.17628037929535" lon="7.896292448043823">
        <ele>9.999999562023526e+24</ele>
        <time>1970-01-01T13:55:52.000Z</time>
      </trkpt>
      <trkpt lat="54.17628240585327" lon="7.896295070648193">
        <ele>9.999999562023526e+24</ele>
        <time>1970-01-01T13:55:52.000Z</time>
      </trkpt>
      <trkpt lat="54.17628073692322" lon="7.896295666694641">
        <ele>9.999999562023526e+24</ele>
        <time>1970-01-01T13:55:52.000Z</time>
      </trkpt>
      <trkpt lat="54.17628073692322" lon="7.896295666694641">
        <ele>9.999999562023526e+24</ele>
        <time>1970-01-01T13:55:52.000Z</time>
      </trkpt>
      <trkpt lat="54.17628073692322" lon="7.896295666694641">
        <ele>9.999999562023526e+24</ele>
        <time>1970-01-01T13:55:52.000Z</time>
      </trkpt>
      <trkpt lat="54.176281571388245" lon="7.896306276321411">
        <ele>9.999999562023526e+24</ele>
        <time>1970-01-01T13:55:53.000Z</time>
      </trkpt>
      <trkpt lat="54.17628073692322" lon="7.896295666694641">
        <ele>9.999999562023526e+24</ele>
        <time>1970-01-01T13:55:53.000Z</time>
      </trkpt>
      <trkpt lat="54.17628073692322" lon="7.896295666694641">
        <ele>9.999999562023526e+24</ele>
        <time>1970-01-01T13:55:53.000Z</time>
      </trkpt>
      <trkpt lat="54.17628073692322" lon="7.896295666694641">
        <ele>9.999999562023526e+24</ele>
        <time>1970-01-01T13:55:53.000Z</time>
      </trkpt>
      <trkpt lat="54.17628073692322" lon="7.896295666694641">
        <ele>9.999999562023526e+24</ele>
        <time>1970-01-01T13:55:53.000Z</time>
      </trkpt>
      <trkpt lat="54.17628073692322" lon="7.896295666694641">
        <ele>9.999999562023526e+24</ele>
        <time>1970-01-01T13:55:53.000Z</time>
      </trkpt>
      <trkpt lat="54.17628073692322" lon="7.896295666694641">
        <ele>9.999999562023526e+24</ele>
        <time>1970-01-01T13:55:53.000Z</time>
      </trkpt>
      <trkpt lat="54.17628073692322" lon="7.896295666694641">
        <ele>9.999999562023526e+24</ele>
        <time>1970-01-01T13:55:53.000Z</time>
      </trkpt>
      <trkpt lat="54.17628073692322" lon="7.896295666694641">
        <ele>9.999999562023526e+24</ele>
        <time>1970-01-01T13:55:53.000Z</time>
      </trkpt>
      <trkpt lat="54.17628073692322" lon="7.896295666694641">
        <ele>9.999999562023526e+24</ele>
        <time>1970-01-01T13:55:53.000Z</time>
      </trkpt>
      <trkpt lat="54.17628073692322" lon="7.896295666694641">
        <ele>9.999999562023526e+24</ele>
        <time>1970-01-01T13:55:53.000Z</time>
      </trkpt>
      <trkpt lat="54.17628073692322" lon="7.896295666694641">
        <ele>9.999999562023526e+24</ele>
        <time>1970-01-01T13:55:53.000Z</time>
      </trkpt>
      <trkpt lat="54.17628073692322" lon="7.896295666694641">
        <ele>9.999999562023526e+24</ele>
        <time>1970-01-01T13:55:53.000Z</time>
      </trkpt>
      <trkpt lat="54.17628073692322" lon="7.896295666694641">
        <ele>9.999999562023526e+24</ele>
        <time>1970-01-01T13:55:53.000Z</time>
      </trkpt>
      <trkpt lat="54.17628073692322" lon="7.896295666694641">
        <ele>9.999999562023526e+24</ele>
        <time>1970-01-01T13:55:53.000Z</time>
      </trkpt>
      <trkpt lat="54.17628073692322" lon="7.896295666694641">
        <ele>9.999999562023526e+24</ele>
        <time>1970-01-01T13:55:53.000Z</time>
      </trkpt>
      <trkpt lat="54.17628073692322" lon="7.896295666694641">
        <ele>9.999999562023526e+24</ele>
        <time>1970-01-01T13:55:53.000Z</time>
      </trkpt>
      <trkpt lat="54.17628073692322" lon="7.896295666694641">
        <ele>9.999999562023526e+24</ele>
        <time>1970-01-01T13:55:53.000Z</time>
      </trkpt>
      <trkpt lat="54.17628073692322" lon="7.896295666694641">
        <ele>9.999999562023526e+24</ele>
        <time>1970-01-01T13:55:53.000Z</time>
      </trkpt>
      <trkpt lat="54.17628073692322" lon="7.896295666694641">
        <ele>9.999999562023526e+24</ele>
        <time>1970-01-01T13:55:53.000Z</time>
      </trkpt>
      <trkpt lat="54.17628073692322" lon="7.896295666694641">
        <ele>9.999999562023526e+24</ele>
        <time>1970-01-01T13:55:53.000Z</time>
      </trkpt>
      <trkpt lat="54.17628073692322" lon="7.896295666694641">
        <ele>9.999999562023526e+24</ele>
        <time>1970-01-01T13:55:53.000Z</time>
      </trkpt>
      <trkpt lat="54.17628073692322" lon="7.896295666694641">
        <ele>9.999999562023526e+24</ele>
        <time>1970-01-01T13:55:53.000Z</time>
      </trkpt>
      <trkpt lat="54.17628073692322" lon="7.896295666694641">
        <ele>9.999999562023526e+24</ele>
        <time>1970-01-01T13:55:53.000Z</time>
      </trkpt>
      <trkpt lat="54.17628073692322" lon="7.896295666694641">
        <ele>9.999999562023526e+24</ele>
        <time>1970-01-01T13:55:53.000Z</time>
      </trkpt>
      <trkpt lat="54.17628073692322" lon="7.896295666694641">
        <ele>9.999999562023526e+24</ele>
        <time>1970-01-01T13:55:53.000Z</time>
      </trkpt>
      <trkpt lat="54.17628073692322" lon="7.896295666694641">
        <ele>9.999999562023526e+24</ele>
        <time>1970-01-01T13:55:53.000Z</time>
      </trkpt>
      <trkpt lat="54.17628073692322" lon="7.896295666694641">
        <ele>9.999999562023526e+24</ele>
        <time>1970-01-01T13:55:53.000Z</time>
      </trkpt>
      <trkpt lat="54.17628228664398" lon="7.896312713623047">
        <ele>9.999999562023526e+24</ele>
        <time>1970-01-01T13:55:54.000Z</time>
      </trkpt>
      <trkpt lat="54.17628073692322" lon="7.896295666694641">
        <ele>9.999999562023526e+24</ele>
        <time>1970-01-01T13:55:55.000Z</time>
      </trkpt>
      <trkpt lat="54.17628073692322" lon="7.896295666694641">
        <ele>9.999999562023526e+24</ele>
        <time>1970-01-01T13:55:55.000Z</time>
      </trkpt>
      <trkpt lat="54.17628073692322" lon="7.896295666694641">
        <ele>9.999999562023526e+24</ele>
        <time>1970-01-01T13:55:55.000Z</time>
      </trkpt>
      <trkpt lat="54.17628073692322" lon="7.896295666694641">
        <ele>9.999999562023526e+24</ele>
        <time>1970-01-01T13:55:55.000Z</time>
      </trkpt>
      <trkpt lat="54.17628073692322" lon="7.896295666694641">
        <ele>9.999999562023526e+24</ele>
        <time>1970-01-01T13:55:55.000Z</time>
      </trkpt>
      <trkpt lat="54.17628276348114" lon="7.896312475204468">
        <ele>9.999999562023526e+24</ele>
        <time>1970-01-01T13:55:55.000Z</time>
      </trkpt>
      <trkpt lat="54.17628562450409" lon="7.8963106870651245">
        <ele>9.999999562023526e+24</ele>
        <time>1970-01-01T13:55:56.000Z</time>
      </trkpt>
      <trkpt lat="54.17628073692322" lon="7.896295666694641">
        <ele>9.999999562023526e+24</ele>
        <time>1970-01-01T13:55:57.000Z</time>
      </trkpt>
      <trkpt lat="54.17628073692322" lon="7.896295666694641">
        <ele>9.999999562023526e+24</ele>
        <time>1970-01-01T13:55:57.000Z</time>
      </trkpt>
      <trkpt lat="54.17628073692322" lon="7.896295666694641">
        <ele>9.999999562023526e+24</ele>
        <time>1970-01-01T13:55:57.000Z</time>
      </trkpt>
      <trkpt lat="54.17628073692322" lon="7.896295666694641">
        <ele>9.999999562023526e+24</ele>
        <time>1970-01-01T13:55:57.000Z</time>
      </trkpt>
      <trkpt lat="54.17628073692322" lon="7.896295666694641">
        <ele>9.999999562023526e+24</ele>
        <time>1970-01-01T13:55:57.000Z</time>
      </trkpt>
      <trkpt lat="54.17628073692322" lon="7.896295666694641">
        <ele>9.999999562023526e+24</ele>
        <time>1970-01-01T13:55:57.000Z</time>
      </trkpt>
      <trkpt lat="54.17628073692322" lon="7.896295666694641">
        <ele>9.999999562023526e+24</ele>
        <time>1970-01-01T13:55:57.000Z</time>
      </trkpt>
      <trkpt lat="54.17628073692322" lon="7.896295666694641">
        <ele>9.999999562023526e+24</ele>
        <time>1970-01-01T13:55:57.000Z</time>
      </trkpt>
      <trkpt lat="54.17628073692322" lon="7.896295666694641">
        <ele>9.999999562023526e+24</ele>
        <time>1970-01-01T13:55:57.000Z</time>
      </trkpt>
      <trkpt lat="54.17628073692322" lon="7.896295666694641">
        <ele>9.999999562023526e+24</ele>
        <time>1970-01-01T13:55:57.000Z</time>
      </trkpt>
      <trkpt lat="54.17628610134125" lon="7.896311402320862">
        <ele>9.999999562023526e+24</ele>
        <time>1970-01-01T13:55:57.000Z</time>
      </trkpt>
      <trkpt lat="54.17628073692322" lon="7.896295666694641">
        <ele>9.999999562023526e+24</ele>
        <time>1970-01-01T13:55:58.000Z</time>
      </trkpt>
      <trkpt lat="54.17628073692322" lon="7.896295666694641">
        <ele>9.999999562023526e+24</ele>
        <time>1970-01-01T13:55:58.000Z</time>
      </trkpt>
      <trkpt lat="54.17628073692322" lon="7.896295666694641">
        <ele>9.999999562023526e+24</ele>
        <time>1970-01-01T13:55:58.000Z</time>
      </trkpt>
    </trkseg>
  </trk>
</gpx>
